Code,Name,Country code,Country name,Latitude,Longitude,Sea distance,Sea latitude,Sea longitude
AD000,Andorra,AD,Andorra,42.506285,1.521801,120770.94275375133,42.47308299429349,2.986084000000004
AL011,Dibër,AL,Albania,41.5888163,20.2355647,59744.477832285054,41.72009299396103,19.540099999999995
AL012,Durrës,AL,Albania,41.3245904,19.4564686,5300.276599634925,41.32960047442243,19.393638505351532
AL013,Kukës,AL,Albania,42.0755845,20.4259456,83896.95227848341,41.72009299396103,19.540099999999995
AL014,Lezhë,AL,Albania,41.78607299999999,19.6460758,11519.642693856895,41.72155353673755,19.538546168370797
AL015,Shkodër,AL,Albania,42.064714,19.5090237,23737.91360237083,41.877685994031566,19.371886999999997
AL021,Elbasan,AL,Albania,41.1113835,20.0822631,59968.27819157323,41.170200691148764,19.37370185107686
AL022,Tiranë,AL,Albania,41.3275459,19.8186982,35511.486265938554,41.361890984886934,19.397695649910425
AL031,Berat,AL,Albania,40.705251,19.9518907,52905.672505779294,40.64528488253274,19.334144058261067
AL032,Fier,AL,Albania,40.7278698,19.5596305,20235.680752059932,40.70445164276694,19.32328754236853
AL033,Gjirokastër,AL,Albania,40.0801494,20.1382971,23939.85885078857,39.91509999312088,19.960083000000004
AL034,Korçë,AL,Albania,40.616136,20.7802439,105096.69873927027,39.91509999312088,19.960083000000004
AL035,Vlorë,AL,Albania,40.4660668,19.491356,10505.263827391098,40.45388126506481,19.369162654860038
AT111,Mittelburgenland,AT,Austria,47.4788231,16.5170481,288745.8097166757,45.59112499553761,13.937683
AT112,Nordburgenland,AT,Austria,47.516231,14.550072,218794.68454570416,45.61435054258207,13.813118254105989
AT113,Südburgenland,AT,Austria,47.15371649999999,16.2688797,249993.59864015633,45.59112499553761,13.937683
AT121,Mostviertel-Eisenwurzen,AT,Austria,48.1769994,15.6161377,314754.7242440178,45.59112499553761,13.937683
AT122,Niederösterreich-Süd,AT,Austria,48.07322000000001,16.32214,330745.7677875167,45.59112499553761,13.937683
AT123,Sankt Pölten,AT,Austria,48.204549,15.6306934,317992.05081097555,45.59112499553761,13.937683
AT124,Waldviertel,AT,Austria,48.6022146,15.1683758,347540.28623209236,45.59112499553761,13.937683
AT125,Weinviertel,AT,Austria,47.516231,14.550072,218794.68454570416,45.61435054258207,13.813118254105989
AT126,Wiener Umland/Nordteil,AT,Austria,48.20806959999999,16.3713095,345239.6078939318,45.59112499553761,13.937683
AT127,Wiener Umland/Südteil,AT,Austria,48.20806959999999,16.3713095,345239.6078939318,45.59112499553761,13.937683
AT130,Wien,AT,Austria,48.20806959999999,16.3713095,345239.6078939318,45.59112499553761,13.937683
AT211,Klagenfurt-Villach,AT,Austria,46.625704,14.3137371,118564.75863626155,45.59453861062369,13.919430392829891
AT212,Oberkärnten,AT,Austria,47.516231,14.550072,218794.68454570416,45.61435054258207,13.813118254105989
AT213,Unterkärnten,AT,Austria,47.516231,14.550072,218794.68454570416,45.61435054258207,13.813118254105989
AT221,Graz,AT,Austria,47.0678961,15.4417305,201060.97194888626,45.59112499553761,13.937683
AT222,Liezen,AT,Austria,47.5626179,14.2445206,217707.74377656364,45.66814637471268,13.521123680215487
AT223,Östliche Obersteiermark,AT,Austria,47.2649012,14.8939302,200075.65830747265,45.59112499553761,13.937683
AT224,Oststeiermark,AT,Austria,47.2649012,14.8939302,200075.65830747265,45.59112499553761,13.937683
AT225,West- und Südsteiermark,AT,Austria,46.7754628,15.5480547,181287.10067538984,45.59112499553761,13.937683
AT226,Westliche Obersteiermark,AT,Austria,47.2649012,14.8939302,200075.65830747265,45.59112499553761,13.937683
AT311,Innviertel,AT,Austria,48.18941539999999,13.2863628,272702.4595261248,45.73669399559013,13.141724000000002
AT312,Linz-Wels,AT,Austria,48.3069096,14.285918,298397.91605969815,45.709945995616074,13.290775498821462
AT313,Mühlviertel,AT,Austria,48.43086100000001,14.2948274,311874.50775902066,45.71656523438049,13.25401182350591
AT314,Steyr-Kirchdorf,AT,Austria,47.93963902723531,14.28508607288545,258965.2806871348,45.68615883634136,13.422240742969988
AT315,Traunviertel,AT,Austria,47.9111056,14.2441444,255101.7713635248,45.690956760908634,13.395805174096386
AT321,Lungau,AT,Austria,47.18195480000001,13.6637498,165516.0291266226,45.73669399559013,13.141724000000002
AT322,Pinzgau-Pongau,AT,Austria,47.3807105,13.332992,183201.21485915565,45.73669399559013,13.141724000000002
AT323,Salzburg und Umgebung,AT,Austria,47.8394807,13.1750587,233586.27284150224,45.73669399559013,13.141724000000002
AT331,Außerfern,AT,Austria,47.3927114,10.5845109,260335.70630970155,45.4196543939199,12.414008183921121
AT332,Innsbruck,AT,Austria,47.2675322,11.3910349,215379.74456398672,45.62635785769787,12.886159495483948
AT333,Osttirol,AT,Austria,46.8469104,12.4583338,134005.54479750656,45.73669399559013,13.141724000000002
AT334,Tiroler Oberland,AT,Austria,47.0751392,10.6642951,227644.91400877264,45.38189699546124,12.328673999999994
AT335,Tiroler Unterland,AT,Austria,47.2537414,11.601487,205480.00485032942,45.68573947435987,13.023390084770245
AT341,Bludenz-Bregenzer Wald,AT,Austria,47.2662703,9.890496,281150.5566499275,45.38189699546124,12.328673999999994
AT342,Rheintal-Bodenseegebiet,AT,Austria,47.516231,14.550072,218794.68454570416,45.61435054258207,13.813118254105989
BA011,Unsko-sanski kanton,BA,Bosnia and Herzegovina,44.65031159999999,16.3171629,83683.32517027647,44.317870995056566,15.376282
BA012,Posavski kanton,BA,Bosnia and Herzegovina,45.0752094,18.3776304,237787.893151241,43.210082994607376,16.930115
BA013,Tuzlanski kanton,BA,Bosnia and Herzegovina,44.5343463,18.6972797,204713.27341879238,43.13676962754039,17.049177735826323
BA014,Zeničko-dobojski kanton,BA,Bosnia and Herzegovina,44.2127109,18.1604625,149492.85871637063,43.188289689471404,16.9655614094992
BA015,Bosansko-podrinjski kanton Goražde,BA,Bosnia and Herzegovina,43.68749,18.8244394,132651.95754420554,42.635165371303884,18.060082940825843
BA016,Srednjobosanski kanton,BA,Bosnia and Herzegovina,44.1381856,17.6866714,120009.43901551058,43.210082994607376,16.930115
BA017,Hercegovačko-neretvanski kanton,BA,Bosnia and Herzegovina,43.5265159,17.763621,70709.11567954425,43.04130781998103,17.203446573513244
BA018,Zapadnohercegovački kanton,BA,Bosnia and Herzegovina,43.4369244,17.3848831,43166.19544404219,43.1397992380655,17.04426770540341
BA019,Kanton Sarajevo,BA,Bosnia and Herzegovina,43.8512564,18.2953442,126198.33272135271,42.988502697687906,17.288413480143465
BA01A,Kanton 10,BA,Bosnia and Herzegovina,43.9534155,16.9425187,75708.21283697561,43.330594215609274,16.563389965663948
BA021,Banjalučka,BA,Bosnia and Herzegovina,44.7721811,17.191,153174.44598472776,44.317870995056566,15.376282
BA022,Bijeljinska,BA,Bosnia and Herzegovina,44.75695109999999,19.2150224,250599.16714184417,43.05278152259399,17.184950128430632
BA023,Dobojska,BA,Bosnia and Herzegovina,43.915886,17.679076,99279.12616445887,43.210082994607376,16.930115
BA024,Ist. Sarajevska,BA,Bosnia and Herzegovina,43.8512564,18.2953442,126198.33272135271,42.988502697687906,17.288413480143465
BA025,Prijedorska,BA,Bosnia and Herzegovina,43.8453737,18.3691935,129615.96195118673,42.95985790282571,17.33439610250391
BA026,Trebinjska,BA,Bosnia and Herzegovina,43.915886,17.679076,99279.12616445887,43.210082994607376,16.930115
BA030,Brčko Distrikt,BA,Bosnia and Herzegovina,44.8405944,18.742153,232798.6329130126,43.210082994607376,16.930115
BE100,Arr. De Bruxelles-Capitale / Arr. Van Brussel-Hoofdstad,BE,Belgium,50.8475937,4.3573821,89518.6668199623,51.46162154107336,3.531021030145555
BE211,Arr. Antwerpen,BE,Belgium,51.2199302,4.414990299999999,60343.019403007216,51.62048299728482,3.830321999999997
BE212,Arr. Mechelen,BE,Belgium,51.0279827,4.4793443,79591.11568277051,51.57495245312665,3.7441869703384607
BE213,Arr. Turnhout,BE,Belgium,51.3216148,4.9373026,83776.80572108744,51.62048299728482,3.830321999999997
BE223,Arr. Tongeren,BE,Belgium,50.78220719999999,5.4607492,147258.49450626905,51.62048299728482,3.830321999999997
BE224,Arr. Hasselt,BE,Belgium,50.9304628,5.3324297,129921.49531528514,51.62048299728482,3.830321999999997
BE225,Arr. Maaseik,BE,Belgium,51.09616760000001,5.7864575,148184.09460878393,51.62048299728482,3.830321999999997
BE231,Arr. Aalst,BE,Belgium,50.9460841,4.0502929,67233.44762513689,51.40612748526265,3.4272768282360255
BE232,Arr. Dendermonde,BE,Belgium,51.0256441,4.102013599999999,62798.46099418713,51.455694912107425,3.5199215968983935
BE233,Arr. Eeklo,BE,Belgium,51.1852279,3.5641894,24890.80899824504,51.35494531136677,3.3319598338008634
BE234,Arr. Gent,BE,Belgium,51.0499922,3.7303853,43896.326843869625,51.34958873138821,3.32200443494126
BE235,Arr. Oudenaarde,BE,Belgium,50.8459758,3.6022745,59166.35787729854,51.34209424160058,3.2994493317780482
BE236,Arr. Sint-Niklaas,BE,Belgium,51.1657403,4.1370695,52445.29177391223,51.52522464451045,3.6504373257852336
BE241,Arr. Halle-Vilvoorde,BE,Belgium,50.9263319,4.4258387,85877.23943659889,51.51595412766915,3.6329974499653335
BE242,Arr. Leuven,BE,Belgium,50.874481,4.714456,103289.8686671856,51.585401773946295,3.763929786140192
BE251,Arr. Brugge,BE,Belgium,51.20845079999999,3.2250586,12000.945942188559,51.3089324248598,3.16282670141953
BE252,Arr. Diksmuide,BE,Belgium,51.0317365,2.8638919,21128.747568195016,51.20827258903195,2.7532101961398703
BE253,Arr. Ieper,BE,Belgium,50.8576861,2.8712378,39352.56803249725,51.18642471260165,2.6652914265338934
BE254,Arr. Kortrijk,BE,Belgium,50.8270689,3.2603645,52489.46050672068,51.266418778952946,2.9889023247052138
BE255,Arr. Oostende,BE,Belgium,51.22471849999999,2.9092214,2291.559922035046,51.24387443654305,2.897223512504452
BE256,Arr. Roeselare,BE,Belgium,50.9452778,3.1237049,36740.6978357219,51.252635840555996,2.93280769369409
BE257,Arr. Tielt,BE,Belgium,50.9984732,3.3342635,36563.471953687564,51.304701629052275,3.1454570217334843
BE258,Arr. Veurne,BE,Belgium,51.0726963,2.6625315,11700.45290916138,51.17035896123306,2.600860599113593
BE310,Arr. Nivelles,BE,Belgium,50.5992013,4.3272356,109368.81411910374,51.34838906134715,3.3197753277508633
BE323,Arr. Mons,BE,Belgium,50.4538181,3.9612155,109215.7730840883,51.34588599722379,3.315124999999999
BE328,Arr. Tournai-Mouscron,BE,Belgium,50.7430148,3.2138896,60031.65075613895,51.245320441912796,2.903092496408899
BE329,Arr. La Louvière,BE,Belgium,50.4761175,4.1830322,114458.69549464285,51.34588599722379,3.315124999999999
BE32A,Arr. Ath,BE,Belgium,50.6342274,3.772344,85483.29866945806,51.34588599722379,3.315124999999999
BE32B,Arr. Charleroi,BE,Belgium,50.408128,4.4476076,131338.2803516775,51.34588599722379,3.315124999999999
BE32C,Arr. Soignies,BE,Belgium,50.576408,4.0708753,100780.89479965033,51.34588599722379,3.315124999999999
BE32D,Arr. Thuin,BE,Belgium,50.3405742,4.2867825,131178.606634135,51.34588599722379,3.315124999999999
BE331,Arr. Huy,BE,Belgium,50.5167024,5.2403015,157644.1572429083,51.60540035350576,3.801756826774722
BE332,Arr. Liège,BE,Belgium,50.6329465,5.5697697,164022.0468346374,51.62048299728482,3.830321999999997
BE334,Arr. Waremme,BE,Belgium,50.6980418,5.2607231,143356.26602309538,51.62048299728482,3.830321999999997
BE335,Arr. Verviers - Communes Francophones,BE,Belgium,50.5910337,5.865577399999999,182858.35168412726,51.62048299728482,3.830321999999997
BE336,Bezirk Verviers - Deutschsprachige Gemeinschaft,BE,Belgium,50.5911695,5.8666477,182907.1152403609,51.62048299728482,3.830321999999997
BE341,Arr. Arlon,BE,Belgium,49.678116,5.8036952,255564.10296398567,51.44627402573592,3.502287861494297
BE342,Arr. Bastogne,BE,Belgium,50.0005481,5.7152698,223604.8168743007,51.54831342150042,3.693923429252127
BE343,Arr. Marche-en-Famenne,BE,Belgium,50.2295567,5.3437708,187077.07806414022,51.521238910654546,3.642937848811674
BE344,Arr. Neufchâteau,BE,Belgium,49.8417887,5.4343204,224675.04530313239,51.391940327748685,3.4008208753798916
BE345,Arr. Virton,BE,Belgium,49.5668607,5.5341917,253057.92447493318,51.34588599722379,3.315124999999999
BE351,Arr. Dinant,BE,Belgium,50.26270969999999,4.9106023,164660.81939914663,51.39521434576976,3.4069238110129447
BE352,Arr. Namur,BE,Belgium,50.46493340000001,4.864973099999999,145218.53679567899,51.46412748791151,3.535715614264313
BE353,Arr. Philippeville,BE,Belgium,50.19599119999999,4.543220799999999,154562.97750486198,51.34588599722379,3.315124999999999
BG311,Vidin,BG,Bulgaria,43.996159,22.8679302,370559.1010388427,40.78854419631155,24.177744013804702
BG312,Montana,BG,Bulgaria,43.4085161,23.2257292,299985.9467243401,40.80916984853235,24.27330156445715
BG313,Vratsa,BG,Bulgaria,43.2102375,23.5528803,271483.45355103636,40.85548112666267,24.489752258954354
BG314,Pleven,BG,Bulgaria,43.4170423,24.6066847,265568.9722415096,42.59732459496463,27.68366090359929
BG315,Lovech,BG,Bulgaria,43.1369534,24.7141906,243367.49542037147,40.94708299360832,24.925902999999998
BG321,Veliko Tarnovo,BG,Bulgaria,43.0756739,25.6171514,176184.6587326199,42.5778809943388,27.673888999999992
BG322,Gabrovo,BG,Bulgaria,42.8742212,25.3186837,195164.49754481207,42.5778809943388,27.673888999999992
BG323,Ruse,BG,Bulgaria,43.83557130000001,25.9656554,177037.63578672727,43.271714562872646,28.027943242839456
BG324,Razgrad,BG,Bulgaria,43.53367189999999,26.5411164,122377.96978942165,43.14051135666139,27.96013710749209
BG325,Silistra,BG,Bulgaria,44.1147271,27.2671901,106425.94906444653,43.46968050672179,28.25865740875539
BG331,Varna,BG,Bulgaria,43.2140504,27.9147333,6297.525778774873,43.19332480904654,27.98738258265414
BG332,Dobrich,BG,Bulgaria,43.57259,27.8272606,33254.19832764949,43.37040398715316,28.1348444324181
BG333,Shumen,BG,Bulgaria,43.2712398,26.9361286,82604.68722136022,43.004411667738594,27.890226005251304
BG334,Targovishte,BG,Bulgaria,43.2493556,26.5727357,109402.40130245658,42.89856860184381,27.836153897712705
BG341,Burgas,BG,Bulgaria,42.50479259999999,27.4626361,19258.87822310214,42.56999986151153,27.67838792395055
BG342,Sliven,BG,Bulgaria,42.6816536,26.3228685,111216.98000709509,42.5778809943388,27.673888999999992
BG343,Yambol,BG,Bulgaria,42.48419990000001,26.5035023,96881.90302489197,42.5778809943388,27.673888999999992
BG344,Stara Zagora,BG,Bulgaria,42.4257769,25.6344644,168765.98304591453,42.5778809943388,27.673888999999992
BG411,Sofia (stolitsa),BG,Bulgaria,42.7570109,23.4504683,225670.76247787024,40.80047804297148,24.232970380732105
BG412,Sofia,BG,Bulgaria,42.6977082,23.3218675,222334.48469178143,40.77093962702734,24.096585753306204
BG413,Blagoevgrad,BG,Bulgaria,42.0208569,23.0943385,156032.99050304803,40.68707299348719,23.714904999999998
BG414,Pernik,BG,Bulgaria,42.6051862,23.0378368,219128.71812024145,40.708029609900464,23.809526763590384
BG415,Kyustendil,BG,Bulgaria,42.2868817,22.6939308,195782.33100666455,40.68707299348719,23.714904999999998
BG421,Plovdiv,BG,Bulgaria,42.1354079,24.7452904,132426.09867642776,40.94708299360832,24.925902999999998
BG422,Haskovo,BG,Bulgaria,41.9344366,25.5554462,119185.34294122834,40.889994794155676,25.24273950012674
BG423,Pazardzhik,BG,Bulgaria,42.1927654,24.3335662,145754.91236793977,40.925653266356605,24.822885552983863
BG424,Smolyan,BG,Bulgaria,41.5774233,24.7011138,72104.37877332327,40.94708299360832,24.925902999999998
BG425,Kardzhali,BG,Bulgaria,41.6338439,25.3777119,83156.39664953407,40.90466898751942,25.161880017208663
CH011,Vaud,CH,Switzerland,46.5613135,6.536765,298278.9807124398,44.23132299502246,8.428711
CH012,Valais / Wallis,CH,Switzerland,46.1904614,7.5449226,227495.54678354558,44.297197426045855,8.652214212843337
CH013,Genève,CH,Switzerland,46.2043907,6.1431577,283508.72882610734,44.23132299502246,8.428711
CH021,Bern / Berne,CH,Switzerland,46.9479739,7.4474468,307930.5612565304,44.36627199507555,8.888915999999996
CH022,Fribourg / Freiburg,CH,Switzerland,46.8064773,7.161971899999999,302001.771540866,44.296367103133264,8.649383592829109
CH023,Solothurn,CH,Switzerland,47.2088348,7.532291,332815.8170821512,44.36627199507555,8.888915999999996
CH024,Neuchâtel,CH,Switzerland,46.9899874,6.9292732,327767.1148561998,44.26838277620222,8.554185019577849
CH025,Jura,CH,Switzerland,47.3444474,7.143060800000001,357490.48391437373,44.36627199507555,8.888915999999996
CH031,Basel-Stadt,CH,Switzerland,47.58482739999999,7.649911100000001,370072.83928595885,44.36627199507555,8.888915999999996
CH032,Basel-Landschaft,CH,Switzerland,47.44181220000001,7.7644002,352469.98597064766,44.36627199507555,8.888915999999996
CH033,Aargau,CH,Switzerland,47.390434,8.0457015,342078.88347106415,44.36627199507555,8.888915999999996
CH040,Zürich,CH,Switzerland,47.3768866,8.541694,335290.6763900507,44.36627199507555,8.888915999999996
CH051,Glarus,CH,Switzerland,47.0411232,9.0679,297201.44436646026,44.36627199507555,8.888915999999996
CH052,Schaffhausen,CH,Switzerland,47.6958897,8.6380488,370151.14651187457,44.36627199507555,8.888915999999996
CH053,Appenzell Ausserrhoden,CH,Switzerland,47.366481,9.3000916,320774.1828692947,45.38189699546124,12.328673999999994
CH054,Appenzell Innerrhoden,CH,Switzerland,47.3161925,9.4316573,309662.85666989366,45.38189699546124,12.328673999999994
CH055,St. Gallen,CH,Switzerland,47.4244818,9.3767173,320938.77473550517,45.38189699546124,12.328673999999994
CH056,Graubünden / Grigioni / Grischun,CH,Switzerland,46.65698709999999,9.5780257,255874.9466613911,45.38189699546124,12.328673999999994
CH057,Thurgau,CH,Switzerland,47.60378559999999,9.0557371,352205.83137779083,45.38189699546124,12.328673999999994
CH061,Luzern,CH,Switzerland,47.05016819999999,8.3093072,301331.7934509597,44.36627199507555,8.888915999999996
CH062,Uri,CH,Switzerland,46.7738629,8.602515300000002,268150.7434504886,44.36627199507555,8.888915999999996
CH063,Schwyz,CH,Switzerland,47.0207138,8.652988400000002,295203.16785245127,44.36627199507555,8.888915999999996
CH064,Obwalden,CH,Switzerland,46.877858,8.251249,283201.68794820365,44.36627199507555,8.888915999999996
CH065,Nidwalden,CH,Switzerland,46.9267016,8.3849982,286913.59371715906,44.36627199507555,8.888915999999996
CH066,Zug,CH,Switzerland,47.1661672,8.5154946,312152.913161382,44.36627199507555,8.888915999999996
CH070,Ticino,CH,Switzerland,46.0580636,8.9901808,187878.06960174913,44.36627199507555,8.888915999999996
CY000,Kýpros,CY,Cyprus,35.126413,33.429859,115342.65709337794,36.166902228612024,33.265819536518144
CZ010,Hlavní město Praha,CZ,Czechia,50.0755381,14.4378005,410305.4912797875,53.757079997706036,14.119689999999995
CZ020,Středočeský kraj,CZ,Czechia,49.8782223,14.9362955,435332.31904952624,53.757079997706036,14.119689999999995
CZ031,Jihočeský kraj,CZ,Czechia,48.9457789,14.4416055,369974.75655519357,45.726781971668096,13.197110892957234
CZ032,Plzeňský kraj,CZ,Czechia,49.4134812,13.3157246,408787.77577669313,45.73669399559013,13.141724000000002
CZ041,Karlovarský kraj,CZ,Czechia,50.1435,12.7501899,412967.26616735256,53.757079997706036,14.119689999999995
CZ042,Ústecký kraj,CZ,Czechia,50.6119037,13.7870086,350767.9432236834,53.757079997706036,14.119689999999995
CZ051,Liberecký kraj,CZ,Czechia,50.65942399999999,14.7632424,347564.3061463028,53.757079997706036,14.119689999999995
CZ052,Královéhradecký kraj,CZ,Czechia,50.3512484,15.7976459,396138.9929655631,53.757079997706036,14.119689999999995
CZ053,Pardubický kraj,CZ,Czechia,49.9444479,16.2856916,449762.1000357484,53.757079997706036,14.119689999999995
CZ063,Kraj Vysočina,CZ,Czechia,49.44900519999999,15.6405934,447728.64344438707,45.59112499553761,13.937683
CZ064,Jihomoravský kraj,CZ,Czechia,48.9544528,16.7676899,431145.574653361,45.59112499553761,13.937683
CZ071,Olomoucký kraj,CZ,Czechia,49.65865489999999,17.0811406,499836.4931233144,53.757079997706036,14.119689999999995
CZ072,Zlínský kraj,CZ,Czechia,49.2162296,17.7720353,496540.8947011392,45.59112499553761,13.937683
CZ080,Moravskoslezský kraj,CZ,Czechia,49.7305327,18.2332637,525336.3264958761,54.43872099782148,18.696289000000004
DE111,"Stuttgart, Stadtkreis",DE,Germany,48.7758459,9.1829321,446186.86902664206,45.415655661639406,12.404957646024128
DE112,Böblingen,DE,Germany,48.6845486,9.0073513,445254.33766486985,45.38189699546124,12.328673999999994
DE113,Esslingen,DE,Germany,48.742178,9.3144229,437630.38455755735,45.44362272767463,12.468322476882609
DE114,Göppingen,DE,Germany,48.7054382,9.6512491,420299.4428622681,45.53019600376685,12.66544738854681
DE115,Ludwigsburg,DE,Germany,48.8891149,9.1942834,456095.8087572878,45.452943923415454,12.489475507511727
DE116,Rems-Murr-Kreis,DE,Germany,48.8293432,9.3185678,445456.0468650702,45.47089750369203,12.530266558757155
DE117,"Heilbronn, Stadtkreis",DE,Germany,49.2247372,9.2179717,466350.247635123,51.62048299728482,3.830321999999997
DE118,"Heilbronn, Landkreis",DE,Germany,49.2247372,9.2179717,466350.247635123,51.62048299728482,3.830321999999997
DE119,Hohenlohekreis,DE,Germany,49.2035203,9.5102214,471916.84476724506,45.63702947972793,12.910768443969252
DE11A,Schwäbisch Hall,DE,Germany,49.1124645,9.7372649,454239.4264415895,45.67490152857288,12.998289760088518
DE11B,Main-Tauber-Kreis,DE,Germany,49.49086,9.7694561,463440.3092709771,53.52789299766521,8.121704000000001
DE11C,Heidenheim,DE,Germany,48.6785503,10.1506915,397286.7604536722,45.666722072691286,12.979362387183976
DE11D,Ostalbkreis,DE,Germany,48.8372475,10.098392,414091.2593545651,45.69784918165321,13.051464369289516
DE121,"Baden-Baden, Stadtkreis",DE,Germany,48.76564,8.228524199999999,446585.290598578,51.62048299728482,3.830321999999997
DE122,"Karlsruhe, Stadtkreis",DE,Germany,48.9540631,8.7259257,457837.64017606765,51.62048299728482,3.830321999999997
DE123,"Karlsruhe, Landkreis",DE,Germany,48.9540631,8.7259257,457837.64017606765,51.62048299728482,3.830321999999997
DE124,Rastatt,DE,Germany,48.8590212,8.2099996,438100.54681865283,51.62048299728482,3.830321999999997
DE125,"Heidelberg, Stadtkreis",DE,Germany,49.3987524,8.6724335,423055.4802922753,51.62048299728482,3.830321999999997
DE126,"Mannheim, Stadtkreis",DE,Germany,49.4873329,8.4646441,405103.1070401127,51.62048299728482,3.830321999999997
DE127,Neckar-Odenwald-Kreis,DE,Germany,49.3404928,9.1199511,452955.4048736239,51.62048299728482,3.830321999999997
DE128,Rhein-Neckar-Kreis,DE,Germany,49.366219,8.7504175,429750.46164989704,51.62048299728482,3.830321999999997
DE129,"Pforzheim, Stadtkreis",DE,Germany,48.8921862,8.6946286,460816.1397270589,51.62048299728482,3.830321999999997
DE12A,Calw,DE,Germany,48.7126752,8.7425205,459442.3160034544,45.38189699546124,12.328673999999994
DE12B,Enzkreis,DE,Germany,48.870703,8.634570199999999,459252.28609910974,51.62048299728482,3.830321999999997
DE12C,Freudenstadt,DE,Germany,48.4644796,8.4179988,453793.289448695,45.38189699546124,12.328673999999994
DE131,"Freiburg im Breisgau, Stadtkreis",DE,Germany,47.9990077,7.842104299999999,411408.97474874964,44.36627199507555,8.888915999999996
DE132,Breisgau-Hochschwarzwald,DE,Germany,47.9183347,7.702876299999999,404948.65286793484,44.36627199507555,8.888915999999996
DE133,Emmendingen,DE,Germany,48.1216285,7.8514309,424623.213897024,44.36627199507555,8.888915999999996
DE134,Ortenaukreis,DE,Germany,48.4734256,7.949782099999999,457799.0846624569,51.62048299728482,3.830321999999997
DE135,Rottweil,DE,Germany,48.1652577,8.628453,418849.2444232165,45.38189699546124,12.328673999999994
DE136,Schwarzwald-Baar-Kreis,DE,Germany,48.05948679999999,8.4640942,411365.98897736793,44.36627199507555,8.888915999999996
DE137,Tuttlingen,DE,Germany,47.98233159999999,8.8192095,394345.20965625125,45.38189699546124,12.328673999999994
DE138,Konstanz,DE,Germany,47.6779808,9.1736741,351602.7898559375,45.38189699546124,12.328673999999994
DE139,Lörrach,DE,Germany,47.6167921,7.6691015,373114.3231846742,44.36627199507555,8.888915999999996
DE13A,Waldshut,DE,Germany,47.6327253,8.2719155,365787.82171037095,44.36627199507555,8.888915999999996
DE141,Reutlingen,DE,Germany,48.49437,9.2028031,419667.31436902937,45.38189699546124,12.328673999999994
DE142,"Tübingen, Landkreis",DE,Germany,48.52158379999999,9.0576,428458.1995641057,45.38189699546124,12.328673999999994
DE143,Zollernalbkreis,DE,Germany,48.2171741,9.0269897,403328.79611914326,45.38189699546124,12.328673999999994
DE144,"Ulm, Stadtkreis",DE,Germany,48.38916,10.0028465,376630.65407959453,45.539119202749866,12.68584984171127
DE145,Alb-Donau-Kreis,DE,Germany,48.2856064,9.7306434,378361.46105745103,45.428813778134746,12.434750861683533
DE146,Biberach,DE,Germany,48.0951473,9.7901525,358342.1874071073,45.38973381850918,12.346362941924706
DE147,Bodenseekreis,DE,Germany,47.6567103,9.4649513,334830.5254278748,45.38189699546124,12.328673999999994
DE148,Ravensburg,DE,Germany,47.78543579999999,9.6103864,338592.6744762894,45.38189699546124,12.328673999999994
DE149,Sigmaringen,DE,Germany,48.0867209,9.2147866,383238.70514527423,45.38189699546124,12.328673999999994
DE211,"Ingolstadt, Kreisfreie Stadt",DE,Germany,48.7667395,11.4226498,360785.0170990348,45.73669399559013,13.141724000000002
DE212,"München, Kreisfreie Stadt",DE,Germany,48.1351253,11.5819806,291591.1859322677,45.73669399559013,13.141724000000002
DE213,"Rosenheim, Kreisfreie Stadt",DE,Germany,47.8571272,12.1181047,248068.34504207582,45.73669399559013,13.141724000000002
DE214,Altötting,DE,Germany,48.2236975,12.6799462,278448.58506951795,45.73669399559013,13.141724000000002
DE215,Berchtesgadener Land,DE,Germany,47.6300314,13.001148,210549.86888544456,45.73669399559013,13.141724000000002
DE216,Bad Tölz-Wolfratshausen,DE,Germany,47.7619038,11.5661472,255041.4095086087,45.73669399559013,13.141724000000002
DE217,Dachau,DE,Germany,48.26315289999999,11.4341515,309132.6326130371,45.73669399559013,13.141724000000002
DE218,Ebersberg,DE,Germany,48.0753354,11.9717235,274553.4243620008,45.73669399559013,13.141724000000002
DE219,Eichstätt,DE,Germany,48.8910779,11.185239,380262.2436328945,45.73669399559013,13.141724000000002
DE21A,Erding,DE,Germany,48.3058389,11.9068811,300343.63531312055,45.73669399559013,13.141724000000002
DE21B,Freising,DE,Germany,48.401454,11.7413524,314449.9026282288,45.73669399559013,13.141724000000002
DE21C,Fürstenfeldbruck,DE,Germany,48.1739373,11.2430079,306787.48958111595,45.73669399559013,13.141724000000002
DE21D,Garmisch-Partenkirchen,DE,Germany,47.4919023,11.0947806,248462.1452376414,45.60153403298069,12.829004840506238
DE21E,Landsberg am Lech,DE,Germany,48.0464144,10.8718015,309202.8078964181,45.694297899234165,13.043228196215004
DE21F,Miesbach,DE,Germany,47.7904174,11.8318549,249001.95825785122,45.73669399559013,13.141724000000002
DE21G,Mühldorf a. Inn,DE,Germany,48.2461124,12.5229789,282646.6645908946,45.73669399559013,13.141724000000002
DE21H,"München, Landkreis",DE,Germany,48.04991949999999,11.6166939,281909.97703981114,45.73669399559013,13.141724000000002
DE21I,Neuburg-Schrobenhausen,DE,Germany,48.7302514,11.1887376,363843.79266282544,45.73669399559013,13.141724000000002
DE21J,Pfaffenhofen a. d. Ilm,DE,Germany,48.5274509,11.5124179,333649.04357919283,45.73669399559013,13.141724000000002
DE21K,"Rosenheim, Landkreis",DE,Germany,47.8606902,12.1554597,247563.21938494762,45.73669399559013,13.141724000000002
DE21L,Starnberg,DE,Germany,47.9999615,11.3390089,286414.79351895663,45.73669399559013,13.141724000000002
DE21M,Traunstein,DE,Germany,47.8677574,12.6384037,239755.88357435292,45.73669399559013,13.141724000000002
DE21N,Weilheim-Schongau,DE,Germany,47.84223670000001,11.1427605,279141.15248688,45.71586032830888,13.09327612443297
DE221,"Landshut, Kreisfreie Stadt",DE,Germany,48.5441917,12.1468532,320807.9901462042,45.73669399559013,13.141724000000002
DE222,"Passau, Kreisfreie Stadt",DE,Germany,48.5667364,13.4319466,315212.11255959765,45.73669399559013,13.141724000000002
DE223,"Straubing, Kreisfreie Stadt",DE,Germany,48.8777333,12.5801538,351499.49471044977,45.73669399559013,13.141724000000002
DE224,Deggendorf,DE,Germany,48.8414126,12.9572212,345207.1335474579,45.73669399559013,13.141724000000002
DE225,Freyung-Grafenau,DE,Germany,48.8089162,13.5475018,342759.95021962456,45.73669399559013,13.141724000000002
DE226,Kelheim,DE,Germany,48.9175771,11.8931689,365686.40179021016,45.73669399559013,13.141724000000002
DE227,"Landshut, Landkreis",DE,Germany,48.5646524,12.1659698,322681.60617582296,45.73669399559013,13.141724000000002
DE228,"Passau, Landkreis",DE,Germany,48.63462029999999,13.1851498,321975.94402058516,45.73669399559013,13.141724000000002
DE229,Regen,DE,Germany,48.9696953,13.1267534,359209.1845012246,45.73669399559013,13.141724000000002
DE22A,Rottal-Inn,DE,Germany,48.3909799,12.9450981,295223.9760137455,45.73669399559013,13.141724000000002
DE22B,Straubing-Bogen,DE,Germany,48.9094236,12.6922665,354093.3732855299,45.73669399559013,13.141724000000002
DE22C,Dingolfing-Landau,DE,Germany,48.6618851,12.7026356,326636.8595950469,45.73669399559013,13.141724000000002
DE231,"Amberg, Kreisfreie Stadt",DE,Germany,49.4403198,11.8633445,422508.1863182324,45.73669399559013,13.141724000000002
DE232,"Regensburg, Kreisfreie Stadt",DE,Germany,49.01305180000001,12.1016257,372309.65344295005,45.73669399559013,13.141724000000002
DE233,"Weiden i. d. Opf, Kreisfreie Stadt",DE,Germany,49.6743636,12.1489337,443773.5609240004,45.73669399559013,13.141724000000002
DE234,Amberg-Sulzbach,DE,Germany,49.4199446,11.8873748,419898.3176454708,45.73669399559013,13.141724000000002
DE235,Cham,DE,Germany,49.2251155,12.6631896,389235.2598908001,45.73669399559013,13.141724000000002
DE236,Neumarkt i. d. OPf.,DE,Germany,49.2772606,11.4671996,412996.882334322,45.73669399559013,13.141724000000002
DE237,Neustadt a. d. Waldnaab,DE,Germany,49.7326102,12.1756154,449829.88667845004,45.73669399559013,13.141724000000002
DE238,"Regensburg, Landkreis",DE,Germany,48.9944617,12.1942913,368878.123272108,45.73669399559013,13.141724000000002
DE239,Schwandorf,DE,Germany,49.3308876,12.1068067,406804.83091092197,45.73669399559013,13.141724000000002
DE23A,Tirschenreuth,DE,Germany,49.8817388,12.3272219,448544.25323253934,53.757079997706036,14.119689999999995
DE241,"Bamberg, Kreisfreie Stadt",DE,Germany,49.8988135,10.9027636,447088.2492057995,53.52789299766521,8.121704000000001
DE242,"Bayreuth, Kreisfreie Stadt",DE,Germany,49.94561479999999,11.5715312,454153.36688272224,54.008727997749666,10.939513999999999
DE243,"Coburg, Kreisfreie Stadt",DE,Germany,50.2612581,10.962576,412637.44022970734,53.52789299766521,8.121704000000001
DE244,"Hof, Kreisfreie Stadt",DE,Germany,50.3135391,11.9127814,411959.650996494,53.757079997706036,14.119689999999995
DE245,"Bamberg, Landkreis",DE,Germany,49.8240063,10.8412281,452899.3752001998,53.52789299766521,8.121704000000001
DE246,"Bayreuth, Landkreis",DE,Germany,49.89007669999999,11.5100916,459925.34164468537,54.008727997749666,10.939513999999999
DE247,"Coburg, Landkreis",DE,Germany,50.2549851,10.8778201,410534.6511850886,53.52789299766521,8.121704000000001
DE248,Forchheim,DE,Germany,49.7188374,11.0679502,468892.30688926514,45.73669399559013,13.141724000000002
DE249,"Hof, Landkreis",DE,Germany,50.2677774,11.8436218,418470.8216467992,53.757079997706036,14.119689999999995
DE24A,Kronach,DE,Germany,50.2359898,11.3310482,420633.5896421554,54.008727997749666,10.939513999999999
DE24B,Kulmbach,DE,Germany,50.1039282,11.4448178,435846.1743393811,54.008727997749666,10.939513999999999
DE24C,Lichtenfels,DE,Germany,50.1435387,11.0555414,427316.1200814315,53.52789299766521,8.121704000000001
DE24D,Wunsiedel i. Fichtelgebirge,DE,Germany,50.03991629999999,12.0039132,438451.79802365904,53.757079997706036,14.119689999999995
DE251,"Ansbach, Kreisfreie Stadt",DE,Germany,49.3004246,10.5719357,440573.93700823735,45.73669399559013,13.141724000000002
DE252,"Erlangen, Kreisfreie Stadt",DE,Germany,49.5896744,11.0119611,456885.7491800819,45.73669399559013,13.141724000000002
DE253,"Fürth, Kreisfreie Stadt",DE,Germany,49.4771169,10.988667,445877.6384931949,45.73669399559013,13.141724000000002
DE254,"Nürnberg, Kreisfreie Stadt",DE,Germany,49.45428810000001,11.0745641,441214.06440268754,45.73669399559013,13.141724000000002
DE255,"Schwabach, Kreisfreie Stadt",DE,Germany,49.3288905,11.0244827,429643.76356092526,45.73669399559013,13.141724000000002
DE256,"Ansbach, Landkreis",DE,Germany,49.2353649,10.4948894,436760.2750164653,45.73669399559013,13.141724000000002
DE257,Erlangen-Höchstadt,DE,Germany,49.7095371,10.81289,463813.32603007497,53.52789299766521,8.121704000000001
DE258,"Fürth, Landkreis",DE,Germany,49.4428542,10.9613528,443104.2996165436,45.73669399559013,13.141724000000002
DE259,Nürnberger Land,DE,Germany,49.5136538,11.28343,442173.09251522657,45.73669399559013,13.141724000000002
DE25A,Neustadt a. d. Aisch-Bad Windsheim,DE,Germany,49.579834,10.6140979,467170.3034557132,45.73669399559013,13.141724000000002
DE25B,Roth,DE,Germany,49.2456337,11.0911607,419235.7371248588,45.73669399559013,13.141724000000002
DE25C,Weißenburg-Gunzenhausen,DE,Germany,49.0329644,10.9719688,401060.7457895641,45.73669399559013,13.141724000000002
DE261,"Aschaffenburg, Kreisfreie Stadt",DE,Germany,49.9806625,9.1355554,400818.3512488539,53.52789299766521,8.121704000000001
DE262,"Schweinfurt, Kreisfreie Stadt",DE,Germany,50.0494345,10.2200758,413159.3571000037,53.52789299766521,8.121704000000001
DE263,"Würzburg, Kreisfreie Stadt",DE,Germany,49.79130439999999,9.9533548,434573.3816614524,53.52789299766521,8.121704000000001
DE264,"Aschaffenburg, Landkreis",DE,Germany,50.0045709,9.1400131,398251.21642393223,53.52789299766521,8.121704000000001
DE265,Bad Kissingen,DE,Germany,50.19862089999999,10.0755912,394073.5013022248,53.52789299766521,8.121704000000001
DE266,Rhön-Grabfeld,DE,Germany,50.329727,10.2064521,383599.2693527326,53.52789299766521,8.121704000000001
DE267,Haßberge,DE,Germany,50.0371545,10.5151591,421975.18476154364,53.52789299766521,8.121704000000001
DE268,Kitzingen,DE,Germany,49.7413592,10.1681783,444412.94191112794,53.52789299766521,8.121704000000001
DE269,Miltenberg,DE,Germany,49.7019294,9.2559213,432840.93415049626,53.52789299766521,8.121704000000001
DE26A,Main-Spessart,DE,Germany,49.9902258,9.6833263,408073.88243161404,53.52789299766521,8.121704000000001
DE26B,"Schweinfurt, Landkreis",DE,Germany,49.9811769,10.1006968,417551.3584865553,53.52789299766521,8.121704000000001
DE26C,"Würzburg, Landkreis",DE,Germany,49.8523466,9.9596355,428188.0002635122,53.52789299766521,8.121704000000001
DE271,"Augsburg, Kreisfreie Stadt",DE,Germany,48.3705449,10.89779,338518.93365436624,45.73669399559013,13.141724000000002
DE272,"Kaufbeuren, Kreisfreie Stadt",DE,Germany,47.8830175,10.625966,304101.9635060624,45.574683161404444,12.76732347506062
DE273,"Kempten (Allgäu), Kreisfreie Stadt",DE,Germany,47.7285699,10.3157835,302618.78686964914,45.43746599595218,12.454360062329904
DE274,"Memmingen, Kreisfreie Stadt",DE,Germany,47.9844094,10.1774423,332021.34355710924,45.47150241624711,12.531642043198985
DE275,Aichach-Friedberg,DE,Germany,48.4588474,11.1328472,338561.7076413186,45.73669399559013,13.141724000000002
DE276,"Augsburg, Landkreis",DE,Germany,48.4853882,10.860918,350884.4265147672,45.73669399559013,13.141724000000002
DE277,Dillingen a.d. Donau,DE,Germany,48.5790918,10.4940239,374066.73732358066,45.73669399559013,13.141724000000002
DE278,Günzburg,DE,Germany,48.45284119999999,10.2775127,371217.7563703541,45.63780731337471,12.912563049081465
DE279,Neu-Ulm,DE,Germany,48.3830252,10.0054584,375956.55452721234,45.53807912256538,12.683470930919082
DE27A,Lindau (Bodensee),DE,Germany,47.55365430000001,9.6930545,314871.97336646396,45.38189699546124,12.328673999999994
DE27B,Ostallgäu,DE,Germany,47.779563,10.6183077,294818.5273393908,45.542413298916884,12.69338565032959
DE27C,Unterallgäu,DE,Germany,48.0462322,10.4913003,324780.61372779787,45.582242110258655,12.784673052671312
DE27D,Donau-Ries,DE,Germany,48.6905338,10.9207435,368640.42004291556,45.73669399559013,13.141724000000002
DE27E,Oberallgäu,DE,Germany,47.52295549999999,10.2629016,285833.8715388746,45.38189699546124,12.328673999999994
DE300,Berlin,DE,Germany,52.52000659999999,13.404954,145737.0591922145,53.757079997706036,14.119689999999995
DE401,"Brandenburg an der Havel, Kreisfreie Stadt",DE,Germany,52.4125287,12.5316444,183568.82900055088,53.757079997706036,14.119689999999995
DE402,"Cottbus, Kreisfreie Stadt",DE,Germany,51.75631079999999,14.3328679,223166.70781517602,53.757079997706036,14.119689999999995
DE403,"Frankfurt (Oder), Kreisfreie Stadt",DE,Germany,52.3472237,14.5505673,159582.26385652603,53.757079997706036,14.119689999999995
DE404,"Potsdam, Kreisfreie Stadt",DE,Germany,52.3905689,13.0644729,167697.0763065897,53.757079997706036,14.119689999999995
DE405,Barnim,DE,Germany,52.8392907,13.7257801,105463.50462720628,53.757079997706036,14.119689999999995
DE406,Dahme-Spreewald,DE,Germany,51.8520753,13.7231361,213700.01356242114,53.757079997706036,14.119689999999995
DE407,Elbe-Elster,DE,Germany,51.5157876,13.3944593,254216.96166326795,53.757079997706036,14.119689999999995
DE408,Havelland,DE,Germany,52.6045635,12.3371397,175035.24565539777,53.757079997706036,14.119689999999995
DE409,Märkisch-Oderland,DE,Germany,52.5338195,14.381125,137289.50404880173,53.757079997706036,14.119689999999995
DE40A,Oberhavel,DE,Germany,52.7557351,13.2408643,125912.42431659892,53.757079997706036,14.119689999999995
DE40B,Oberspreewald-Lausitz,DE,Germany,51.5204143,14.0049711,249063.5408314735,53.757079997706036,14.119689999999995
DE40C,Oder-Spree,DE,Germany,52.17418170000001,14.2481076,176403.93138227097,53.757079997706036,14.119689999999995
DE40D,Ostprignitz-Ruppin,DE,Germany,52.9211097,12.8002556,127948.87045987815,53.757079997706036,14.119689999999995
DE40E,Potsdam-Mittelmark,DE,Germany,52.1420644,12.5826067,207272.305469994,53.757079997706036,14.119689999999995
DE40F,Prignitz,DE,Germany,53.0819589,11.8598802,116705.13034646383,54.08309157214555,11.33573878615451
DE40G,Spree-Neiße,DE,Germany,51.7445739,14.6451394,226810.4702780118,53.757079997706036,14.119689999999995
DE40H,Teltow-Fläming,DE,Germany,52.0917676,13.1738359,195930.90242706233,53.757079997706036,14.119689999999995
DE40I,Uckermark,DE,Germany,53.2170222,13.8404787,62893.9192414403,53.757079997706036,14.119689999999995
DE501,"Bremen, Kreisfreie Stadt",DE,Germany,53.07929619999999,8.8016937,67426.57968454286,53.52789299766521,8.121704000000001
DE502,"Bremerhaven, Kreisfreie Stadt",DE,Germany,53.5395845,8.5809424,22797.76082236436,53.66910678761865,8.314084303487732
DE600,Hamburg,DE,Germany,53.5488282,9.9871703,81001.48514390762,54.008727997749666,10.939513999999999
DE711,"Darmstadt, Kreisfreie Stadt",DE,Germany,49.8727703,8.6512219,391783.3211802045,51.62048299728482,3.830321999999997
DE712,"Frankfurt am Main, Kreisfreie Stadt",DE,Germany,50.1109203,8.682099599999999,380506.4295986913,51.62048299728482,3.830321999999997
DE713,"Offenbach am Main, Kreisfreie Stadt",DE,Germany,50.09563620000001,8.776084299999999,384537.17510872724,53.52789299766521,8.121704000000001
DE714,"Wiesbaden, Kreisfreie Stadt",DE,Germany,50.0782184,8.239760799999999,354696.9453394512,51.62048299728482,3.830321999999997
DE715,Bergstraße,DE,Germany,49.6487606,8.6384116,404648.8519497793,51.62048299728482,3.830321999999997
DE716,Darmstadt-Dieburg,DE,Germany,49.9057615,8.5884941,386020.9531030539,51.62048299728482,3.830321999999997
DE717,Groß-Gerau,DE,Germany,49.9203655,8.4847038,378820.35490805306,51.62048299728482,3.830321999999997
DE718,Hochtaunuskreis,DE,Germany,50.2284759,8.617773099999999,368694.0952394631,53.52789299766521,8.121704000000001
DE719,Main-Kinzig-Kreis,DE,Germany,50.2498702,9.2899591,373473.0125206503,53.52789299766521,8.121704000000001
DE71A,Main-Taunus-Kreis,DE,Germany,50.1418176,8.5037452,367643.42895565386,51.62048299728482,3.830321999999997
DE71B,Odenwaldkreis,DE,Germany,49.6558833,8.9961468,425681.3133272874,51.62048299728482,3.830321999999997
DE71C,"Offenbach, Landkreis",DE,Germany,50.0087969,8.7849493,392412.8732302193,51.62048299728482,3.830321999999997
DE71D,Rheingau-Taunus-Kreis,DE,Germany,50.1402994,8.0695976,340702.58164914965,51.62048299728482,3.830321999999997
DE71E,Wetteraukreis,DE,Germany,50.3308526,8.7510993,358342.3978588174,53.52789299766521,8.121704000000001
DE721,"Gießen, Landkreis",DE,Germany,50.5950778,8.8191603,329811.56487589085,53.52789299766521,8.121704000000001
DE722,Lahn-Dill-Kreis,DE,Germany,50.5635252,8.5002611,330862.20052900515,53.52789299766521,8.121704000000001
DE723,Limburg-Weilburg,DE,Germany,50.3999442,8.081812,327737.5743986104,51.62048299728482,3.830321999999997
DE724,Marburg-Biedenkopf,DE,Germany,50.8018843,8.765777,306504.63571437116,53.52789299766521,8.121704000000001
DE725,Vogelsbergkreis,DE,Germany,50.6334203,9.3960049,333680.623335796,53.52789299766521,8.121704000000001
DE731,"Kassel, Kreisfreie Stadt",DE,Germany,51.3118828,9.4915751,263588.42974624544,53.52789299766521,8.121704000000001
DE732,Fulda,DE,Germany,50.5558095,9.6808449,347539.3316305954,53.52789299766521,8.121704000000001
DE733,Hersfeld-Rotenburg,DE,Germany,50.87046789999999,9.7049197,314855.3027222697,53.52789299766521,8.121704000000001
DE734,"Kassel, Landkreis",DE,Germany,51.362739,9.4563581,257431.3968915097,53.52789299766521,8.121704000000001
DE735,Schwalm-Eder-Kreis,DE,Germany,51.03125259999999,9.4133656,291437.92128058115,53.52789299766521,8.121704000000001
DE736,Waldeck-Frankenberg,DE,Germany,51.2762346,8.870396999999999,255674.11804790623,53.52789299766521,8.121704000000001
DE737,Werra-Meißner-Kreis,DE,Germany,51.2109649,9.9374241,285906.6394169915,53.52789299766521,8.121704000000001
DE803,"Rostock, Kreisfreie Stadt",DE,Germany,54.0924406,12.0991466,14876.437054868496,54.19647199778149,11.956298999999994
DE804,"Schwerin, Kreisfreie Stadt",DE,Germany,53.6353316,11.4003136,48805.075635997695,54.05343842416347,11.17675286833015
DE80J,Mecklenburgische Seenplatte,DE,Germany,53.5649226,13.2695452,56297.49890460931,53.89977734925141,13.909286464089773
DE80K,Landkreis Rostock,DE,Germany,53.8002061,12.1745761,46372.14929125507,54.19647199778149,11.956298999999994
DE80L,Vorpommern-Rügen,DE,Germany,54.30643569999999,13.0661047,2417.220386083147,54.28778738018872,13.047054007705992
DE80M,Nordwestmecklenburg,DE,Germany,53.8879781,11.4621292,23203.54840304436,54.0868636531914,11.356058633873245
DE80N,Vorpommern-Greifswald,DE,Germany,54.0945362,13.3874129,7005.9712950098055,54.14842381299722,13.442853909302984
DE80O,Ludwigslust-Parchim,DE,Germany,53.4250386,11.8478548,79977.31073575336,54.11131043205927,11.488282789886721
DE911,"Braunschweig, Kreisfreie Stadt",DE,Germany,52.2677907,10.5245656,195709.5316537818,54.008727997749666,10.939513999999999
DE912,"Salzgitter, Kreisfreie Stadt",DE,Germany,52.13786589999999,10.3899126,211418.6062232052,54.008727997749666,10.939513999999999
DE913,"Wolfsburg, Kreisfreie Stadt",DE,Germany,52.4226503,10.7865461,176795.89220990374,54.008727997749666,10.939513999999999
DE914,Gifhorn,DE,Germany,52.4809091,10.5507829,171984.23610598838,54.008727997749666,10.939513999999999
DE916,Goslar,DE,Germany,51.9059531,10.4289963,236491.640569009,54.008727997749666,10.939513999999999
DE917,Helmstedt,DE,Germany,52.2272927,11.003723,198287.50860344231,54.008727997749666,10.939513999999999
DE918,Northeim,DE,Germany,51.7013769,9.995866,239605.5655207566,53.52789299766521,8.121704000000001
DE91A,Peine,DE,Germany,52.3204095,10.243267,193556.4872367959,54.008727997749666,10.939513999999999
DE91B,Wolfenbüttel,DE,Germany,52.160443,10.5342445,207459.2037588096,54.008727997749666,10.939513999999999
DE91C,Göttingen,DE,Germany,51.54128040000001,9.9158035,252338.48533540915,53.52789299766521,8.121704000000001
DE922,Diepholz,DE,Germany,52.6056456,8.3707878,103978.1852730054,53.52789299766521,8.121704000000001
DE923,Hameln-Pyrmont,DE,Germany,52.1042035,9.3616,179115.1733360724,53.52789299766521,8.121704000000001
DE925,Hildesheim,DE,Germany,52.154778,9.9579652,196593.00677032128,53.52789299766521,8.121704000000001
DE926,Holzminden,DE,Germany,51.8274802,9.458816,209701.98645516013,53.52789299766521,8.121704000000001
DE927,Nienburg (Weser),DE,Germany,52.6380924,9.2084155,122901.14732981722,53.52789299766521,8.121704000000001
DE928,Schaumburg,DE,Germany,52.3230742,9.1925881,152180.13185798744,53.52789299766521,8.121704000000001
DE929,Region Hannover,DE,Germany,52.375874,9.732007,167758.66572561619,53.52789299766521,8.121704000000001
DE931,Celle,DE,Germany,52.6263797,10.080865,164123.09180676306,54.008727997749666,10.939513999999999
DE932,Cuxhaven,DE,Germany,53.859336,8.6879057,5697.739440886071,53.891819422941204,8.620939372684195
DE933,Harburg,DE,Germany,53.4607681,9.9835844,87739.41037339305,54.008727997749666,10.939513999999999
DE934,Lüchow-Dannenberg,DE,Germany,52.9664534,11.1503314,116832.33937018746,54.008727997749666,10.939513999999999
DE935,"Lüneburg, Landkreis",DE,Germany,53.2478704,10.4160637,91476.63044466218,54.008727997749666,10.939513999999999
DE936,Osterholz,DE,Germany,53.2269225,8.790036299999999,55631.591211614286,53.543096631824696,8.142336080394905
DE937,Rotenburg (Wümme),DE,Germany,53.1034008,9.3973149,95653.97952374225,53.65050559616673,8.288647222880073
DE938,Heidekreis,DE,Germany,52.98149069999999,9.8321352,126695.27192691357,53.70927617449381,8.369115968231394
DE939,Stade,DE,Germany,53.59286179999999,9.4709494,64404.611310631284,53.96276783286744,8.719593845458341
DE93A,Uelzen,DE,Germany,52.9652883,10.5573402,118853.43076219132,54.008727997749666,10.939513999999999
DE93B,Verden,DE,Germany,52.924648,9.2280756,99823.24775894739,53.52789299766521,8.121704000000001
DE941,"Delmenhorst, Kreisfreie Stadt",DE,Germany,53.0485048,8.6254748,63040.2318680655,53.52789299766521,8.121704000000001
DE942,"Emden, Kreisfreie Stadt",DE,Germany,53.35940290000001,7.2060095,24219.184330783697,53.48229999765703,6.905273000000005
DE943,"Oldenburg (Oldenburg), Kreisfreie Stadt",DE,Germany,53.1434501,8.214552099999999,43226.93638713489,53.52789299766521,8.121704000000001
DE944,"Osnabrück, Kreisfreie Stadt",DE,Germany,52.2799112,8.0471788,138972.71052644588,53.52789299766521,8.121704000000001
DE945,"Wilhelmshaven, Kreisfreie Stadt",DE,Germany,53.53234029999999,8.1068722,659.5183252282698,53.5349832679542,8.115772773363918
DE946,Ammerland,DE,Germany,53.2577806,7.9222968,32861.413212381034,53.52789299766521,8.121704000000001
DE947,Aurich,DE,Germany,53.472548,7.4833137,27322.44590550719,53.71656080190775,7.437820922572343
DE948,Cloppenburg,DE,Germany,52.8452899,8.0472991,76128.97034075206,53.52789299766521,8.121704000000001
DE949,Emsland,DE,Germany,52.5227021,7.3256322,110452.45419200735,53.48229999765703,6.905273000000005
DE94A,Friesland (DE),DE,Germany,53.57557869999999,7.9002789,10752.079266293364,53.61883202432638,8.045460277397465
DE94B,Grafschaft Bentheim,DE,Germany,52.4407445,7.0648882,116410.66407697248,53.48229999765703,6.905273000000005
DE94C,Leer,DE,Germany,53.235657,7.4679018,46430.26821766436,53.48229999765703,6.905273000000005
DE94D,"Oldenburg, Landkreis",DE,Germany,52.89262799999999,8.430555499999999,73641.45114358097,53.52789299766521,8.121704000000001
DE94E,"Osnabrück, Landkreis",DE,Germany,52.52771079999999,7.858459099999999,112703.34465240735,53.52789299766521,8.121704000000001
DE94F,Vechta,DE,Germany,52.7337273,8.292668599999999,89114.68031807448,53.52789299766521,8.121704000000001
DE94G,Wesermarsch,DE,Germany,53.3263116,8.4782391,32630.144016807113,53.52789299766521,8.121704000000001
DE94H,Wittmund,DE,Germany,53.5783573,7.779684899999999,17727.63050507814,53.73675548702476,7.751254492731245
DEA11,"Düsseldorf, Kreisfreie Stadt",DE,Germany,51.2230411,6.7824545,207573.821402583,51.88872330459383,3.9856502183763
DEA12,"Duisburg, Kreisfreie Stadt",DE,Germany,51.4344079,6.762329299999999,197459.87341147455,52.068524589356464,4.090814749621397
DEA13,"Essen, Kreisfreie Stadt",DE,Germany,51.4575573,7.0224632,213245.6766818604,52.14612801644357,4.136468327810383
DEA14,"Krefeld, Kreisfreie Stadt",DE,Germany,51.33453,6.565408199999999,188892.87820065804,51.93819481911875,4.0145011068138565
DEA15,"Mönchengladbach, Kreisfreie Stadt",DE,Germany,51.1941686,6.4315392,186017.07342487472,51.78631620439947,3.9261308224040814
DEA16,"Mülheim an der Ruhr, Kreisfreie Stadt",DE,Germany,51.4185682,6.884522599999999,205998.0577083046,52.08165998314663,4.0985309654404105
DEA17,"Oberhausen, Kreisfreie Stadt",DE,Germany,51.4878429,6.863308,201733.57081448624,52.137308846967194,4.131271998187046
DEA18,"Remscheid, Kreisfreie Stadt",DE,Germany,51.1801079,7.225058799999999,238019.95544536386,51.9500376251113,4.021417117824555
DEA19,"Solingen, Kreisfreie Stadt",DE,Germany,51.1748808,7.0847931,229166.69862203536,51.91403930363513,4.000406055396328
DEA1A,"Wuppertal, Kreisfreie Stadt",DE,Germany,51.2562128,7.150763599999999,230000.73836540387,51.9995574705958,4.050375812390938
DEA1B,Kleve,DE,Germany,51.78672599999999,6.12954,142226.18455659412,52.23896477697574,4.191294724345987
DEA1C,Mettmann,DE,Germany,51.2481156,6.975103,218990.48103440827,51.95331389757383,4.023331058402371
DEA1D,Rhein-Kreis Neuss,DE,Germany,51.206105,6.6785213,201545.21462788896,51.85099467542775,3.963690494570204
DEA1E,Viersen,DE,Germany,51.2554987,6.3965235,181218.28459863216,51.83225480171123,3.952796828189933
DEA1F,Wesel,DE,Germany,51.6643079,6.6295679,179359.40596984452,52.239869994638696,4.1918304547169
DEA22,"Bonn, Kreisfreie Stadt",DE,Germany,50.73743,7.0982068,248680.46840915518,51.62048299728482,3.830321999999997
DEA23,"Köln, Kreisfreie Stadt",DE,Germany,50.937531,6.9602786,231067.11373661392,51.67947545435861,3.864323573698156
DEA24,"Leverkusen, Kreisfreie Stadt",DE,Germany,51.04592479999999,7.0192196,230344.79122052682,51.78710062497835,3.9265856969513586
DEA26,Düren,DE,Germany,50.8037183,6.4793683,206170.88589086977,51.62048299728482,3.830321999999997
DEA27,Rhein-Erft-Kreis,DE,Germany,50.93695160000001,6.6938808,213736.98263827813,51.62048299728482,3.830321999999997
DEA28,Euskirchen,DE,Germany,50.6574392,6.7899945,233169.20952170534,51.62048299728482,3.830321999999997
DEA29,Heinsberg,DE,Germany,51.0640858,6.0943707,169427.53394833548,51.62048299728482,3.830321999999997
DEA2A,Oberbergischer Kreis,DE,Germany,51.0275951,7.563750499999999,266429.58208141266,51.89423348806686,3.988860492633889
DEA2B,Rheinisch-Bergischer Kreis,DE,Germany,50.98964789999999,7.1229954,239455.31392534668,51.76140220575533,3.911691814098294
DEA2C,Rhein-Sieg-Kreis,DE,Germany,50.7922467,7.2071586,253279.9152490102,51.62048299728482,3.830321999999997
DEA2D,Städteregion Aachen,DE,Germany,50.7724749,6.080458699999999,183391.58478561777,51.62048299728482,3.830321999999997
DEA31,"Bottrop, Kreisfreie Stadt",DE,Germany,51.529086,6.9446888,205240.6314214423,52.191165998388286,4.1630374775933685
DEA32,"Gelsenkirchen, Kreisfreie Stadt",DE,Germany,51.5187651,7.0838411,214615.81879210775,52.2129807370017,4.175926110340558
DEA33,"Münster, Kreisfreie Stadt",DE,Germany,51.9606649,7.6261347,176191.5816784565,53.48229999765703,6.905273000000005
DEA34,Borken,DE,Germany,51.8488761,6.859919499999999,181813.37018791132,53.48229999765703,6.905273000000005
DEA35,Coesfeld,DE,Germany,51.9382944,7.1675831,172740.7281770163,53.48229999765703,6.905273000000005
DEA36,Recklinghausen,DE,Germany,51.6117809,7.197388500000001,209103.19805017588,53.48229999765703,6.905273000000005
DEA37,Steinfurt,DE,Germany,52.1495113,7.336075,151135.73333437502,53.48229999765703,6.905273000000005
DEA38,Warendorf,DE,Germany,51.9514351,7.984100100000001,175680.32857264424,53.52789299766521,8.121704000000001
DEA41,"Bielefeld, Kreisfreie Stadt",DE,Germany,52.0302304,8.5324472,168946.18213708393,53.52789299766521,8.121704000000001
DEA42,Gütersloh,DE,Germany,51.9032375,8.385753500000002,181669.05067004287,53.52789299766521,8.121704000000001
DEA43,Herford,DE,Germany,52.1180196,8.677477200000002,161297.32158366917,53.52789299766521,8.121704000000001
DEA44,Höxter,DE,Germany,51.7790274,9.3787782,212374.24875832096,53.52789299766521,8.121704000000001
DEA45,Lippe,DE,Germany,51.94158729999999,8.8859628,183908.31529919614,53.52789299766521,8.121704000000001
DEA46,Minden-Lübbecke,DE,Germany,52.2923549,8.9160539,147503.75097036012,53.52789299766521,8.121704000000001
DEA47,Paderborn,DE,Germany,51.7189205,8.757509299999999,205846.02205408763,53.52789299766521,8.121704000000001
DEA51,"Bochum, Kreisfreie Stadt",DE,Germany,51.4818445,7.216236299999999,223620.43678465034,53.48229999765703,6.905273000000005
DEA52,"Dortmund, Kreisfreie Stadt",DE,Germany,51.5135872,7.465298100000001,222357.63999786787,53.48229999765703,6.905273000000005
DEA53,"Hagen, Kreisfreie Stadt",DE,Germany,51.3678219,7.463638599999999,238346.60555277314,53.48229999765703,6.905273000000005
DEA54,"Hamm, Kreisfreie Stadt",DE,Germany,51.6738583,7.815981600000001,207359.6822791009,53.52789299766521,8.121704000000001
DEA55,"Herne, Kreisfreie Stadt",DE,Germany,51.5368948,7.200914699999999,217423.552225901,53.48229999765703,6.905273000000005
DEA56,Ennepe-Ruhr-Kreis,DE,Germany,51.2978242,7.357053100000001,241546.67065801928,52.0820157992064,4.098740048593126
DEA57,Hochsauerlandkreis,DE,Germany,51.3449774,8.282988999999999,243155.45526672187,53.52789299766521,8.121704000000001
DEA58,Märkischer Kreis,DE,Germany,51.2189518,7.6313366,256673.255734099,53.48229999765703,6.905273000000005
DEA59,Olpe,DE,Germany,51.0295385,7.8496836,278627.6205688586,53.52789299766521,8.121704000000001
DEA5A,Siegen-Wittgenstein,DE,Germany,50.8982403,8.0271417,292684.71788139554,53.52789299766521,8.121704000000001
DEA5B,Soest,DE,Germany,51.5714188,8.110529099999999,217717.51520342394,53.52789299766521,8.121704000000001
DEA5C,Unna,DE,Germany,51.5410778,7.687836,222452.532171311,53.48229999765703,6.905273000000005
DEB11,"Koblenz, Kreisfreie Stadt",DE,Germany,50.3569429,7.5889959,298956.8896035966,51.62048299728482,3.830321999999997
DEB12,Ahrweiler,DE,Germany,50.5417777,7.102891,258782.37103339809,51.62048299728482,3.830321999999997
DEB13,Altenkirchen (Westerwald),DE,Germany,50.6854009,7.6359735,285793.1420531629,51.62048299728482,3.830321999999997
DEB14,Bad Kreuznach,DE,Germany,49.8440162,7.873134599999999,347113.46602906653,51.62048299728482,3.830321999999997
DEB15,Birkenfeld,DE,Germany,49.6474625,7.1650865,322239.3996929465,51.62048299728482,3.830321999999997
DEB17,Mayen-Koblenz,DE,Germany,50.33049519999999,7.225527899999999,278275.1962840362,51.62048299728482,3.830321999999997
DEB18,Neuwied,DE,Germany,50.4361866,7.4664546,287051.7298535577,51.62048299728482,3.830321999999997
DEB1A,Rhein-Lahn-Kreis,DE,Germany,50.3710022,7.9835871,322936.4749460001,51.62048299728482,3.830321999999997
DEB1B,Westerwaldkreis,DE,Germany,50.4715629,7.7962156,306012.3341834427,51.62048299728482,3.830321999999997
DEB1C,Cochem-Zell,DE,Germany,50.1473919,7.1702846,286506.5946945637,51.62048299728482,3.830321999999997
DEB1D,Rhein-Hunsrück-Kreis,DE,Germany,50.0613664,7.5526519,314327.78774931526,51.62048299728482,3.830321999999997
DEB21,"Trier, Kreisfreie Stadt",DE,Germany,49.7500569,6.637188999999999,287505.70805992547,51.62048299728482,3.830321999999997
DEB22,Bernkastel-Wittlich,DE,Germany,49.987343,6.8914538,282085.16527004587,51.62048299728482,3.830321999999997
DEB23,Eifelkreis Bitburg-Prüm,DE,Germany,49.96791,6.5224296,264268.727134563,51.62048299728482,3.830321999999997
DEB24,Vulkaneifel,DE,Germany,50.1961469,6.8353544,264150.6334400732,51.62048299728482,3.830321999999997
DEB25,Trier-Saarburg,DE,Germany,49.69934929999999,6.572670500000001,288608.21214357734,51.62048299728482,3.830321999999997
DEB31,"Frankenthal (Pfalz), Kreisfreie Stadt",DE,Germany,49.53770720000001,8.3560768,395453.9027728667,51.62048299728482,3.830321999999997
DEB32,"Kaiserslautern, Kreisfreie Stadt",DE,Germany,49.4400657,7.7491265,368805.9513731614,51.62048299728482,3.830321999999997
DEB33,"Landau in der Pfalz, Kreisfreie Stadt",DE,Germany,49.19888599999999,8.1185622,406749.84821135993,51.62048299728482,3.830321999999997
DEB34,"Ludwigshafen am Rhein, Kreisfreie Stadt",DE,Germany,49.4774018,8.4447451,404640.09073402116,51.62048299728482,3.830321999999997
DEB35,"Mainz, Kreisfreie Stadt",DE,Germany,49.9928617,8.2472526,360088.1141336297,51.62048299728482,3.830321999999997
DEB36,"Neustadt an der Weinstraße, Kreisfreie Stadt",DE,Germany,49.3501864,8.1486886,397075.54355451436,51.62048299728482,3.830321999999997
DEB37,"Pirmasens, Kreisfreie Stadt",DE,Germany,49.20155500000001,7.600216100000001,379747.7998930865,51.62048299728482,3.830321999999997
DEB38,"Speyer, Kreisfreie Stadt",DE,Germany,49.3172765,8.441217199999999,415622.0855971743,51.62048299728482,3.830321999999997
DEB39,"Worms, Kreisfreie Stadt",DE,Germany,49.6341372,8.3507182,388684.62885395205,51.62048299728482,3.830321999999997
DEB3A,"Zweibrücken, Kreisfreie Stadt",DE,Germany,49.2450528,7.3634022,364477.17754219915,51.62048299728482,3.830321999999997
DEB3B,Alzey-Worms,DE,Germany,49.7445096,8.119709,367979.0721358761,51.62048299728482,3.830321999999997
DEB3C,Bad Dürkheim,DE,Germany,49.46141480000001,8.1694167,390194.7773717145,51.62048299728482,3.830321999999997
DEB3D,Donnersbergkreis,DE,Germany,49.6630863,8.0127925,367294.0093584031,51.62048299728482,3.830321999999997
DEB3E,Germersheim,DE,Germany,49.211472,8.363785199999999,419021.151930646,51.62048299728482,3.830321999999997
DEB3F,"Kaiserslautern, Landkreis",DE,Germany,49.48140129999999,7.631242299999999,359409.8576208158,51.62048299728482,3.830321999999997
DEB3G,Kusel,DE,Germany,49.5383747,7.406452799999999,343223.3035900732,51.62048299728482,3.830321999999997
DEB3H,Südliche Weinstraße,DE,Germany,49.14021169999999,8.0183933,405993.305370222,51.62048299728482,3.830321999999997
DEB3I,Rhein-Pfalz-Kreis,DE,Germany,49.4289082,8.3136511,400569.9939448506,51.62048299728482,3.830321999999997
DEB3J,Mainz-Bingen,DE,Germany,49.96701849999999,7.899461899999999,340751.9260524862,51.62048299728482,3.830321999999997
DEB3K,Südwestpfalz,DE,Germany,49.2309251,7.5487474,374796.89780426223,51.62048299728482,3.830321999999997
Dec-01,Regionalverband Saarbrücken,De,,49.2362191,6.9960017,347802.37531922344,51.62048299728482,3.830321999999997
Dec-02,Merzig-Wadern,De,,49.4411943,6.6168415,312786.274392418,51.61949184210238,3.8284438744015836
Dec-03,Neunkirchen,De,,49.348932,7.1780408,346863.7127893883,51.62048299728482,3.830321999999997
Dec-04,Saarlouis,De,,49.3123607,6.7506976,330066.85210171575,51.612684881948276,3.8155491394029957
Dec-05,Saarpfalz-Kreis,De,,49.2367465,7.2609634,360204.5092716414,51.62048299728482,3.830321999999997
Dec-06,St. Wendel,De,,49.4677707,7.169062499999999,336693.5019645631,51.62048299728482,3.830321999999997
DED21,"Dresden, Kreisfreie Stadt",DE,Germany,51.0504088,13.7372621,302356.8914004579,53.757079997706036,14.119689999999995
DED2C,Bautzen,DE,Germany,51.18229299999999,14.4237749,287327.2752583592,53.757079997706036,14.119689999999995
DED2D,Görlitz,DE,Germany,51.1524553,14.9688941,295607.007429348,53.757079997706036,14.119689999999995
DED2E,Meißen,DE,Germany,51.1617842,13.4976592,291908.6877025459,53.757079997706036,14.119689999999995
DED2F,Sächsische Schweiz-Osterzgebirge,DE,Germany,50.9574182,13.9310499,311854.6913540702,53.757079997706036,14.119689999999995
DED41,"Chemnitz, Kreisfreie Stadt",DE,Germany,50.8282222,12.9208547,336025.3145892916,53.757079997706036,14.119689999999995
DED42,Erzgebirgskreis,DE,Germany,50.5851228,13.0149313,360973.85388711124,53.757079997706036,14.119689999999995
DED43,Mittelsachsen,DE,Germany,50.9160943,13.3468175,320521.58940358384,53.757079997706036,14.119689999999995
DED44,Vogtlandkreis,DE,Germany,50.4933929,12.1533687,387288.4056161535,53.757079997706036,14.119689999999995
DED45,Zwickau,DE,Germany,50.7176452,12.4968797,355902.2199790182,53.757079997706036,14.119689999999995
DED51,"Leipzig, Kreisfreie Stadt",DE,Germany,51.3397149,12.3730474,293909.0433854284,53.757079997706036,14.119689999999995
DED52,Leipzig,DE,Germany,51.3396955,12.3730747,293910.2845694949,53.757079997706036,14.119689999999995
DED53,Nordsachsen,DE,Germany,51.55689049999999,12.9930272,256431.40277102162,53.757079997706036,14.119689999999995
DEE01,"Dessau-Roßlau, Kreisfreie Stadt",DE,Germany,51.84282779999999,12.2303935,248181.92771540978,53.757079997706036,14.119689999999995
DEE02,"Halle (Saale), Kreisfreie Stadt",DE,Germany,51.49535669999999,11.9662371,288149.1682913596,54.008727997749666,10.939513999999999
DEE03,"Magdeburg, Kreisfreie Stadt",DE,Germany,52.1131758,11.6080863,215654.50868501232,54.008727997749666,10.939513999999999
DEE04,Altmarkkreis Salzwedel,DE,Germany,52.8513597,11.1644408,129663.85814802206,54.008727997749666,10.939513999999999
DEE05,Anhalt-Bitterfeld,DE,Germany,51.7505762,11.9802356,260876.03322533186,54.008727997749666,10.939513999999999
DEE06,Jerichower Land,DE,Germany,52.2647474,11.8465522,203354.02583143054,54.008727997749666,10.939513999999999
DEE07,Börde,DE,Germany,52.2827241,11.4170506,194717.03923791889,54.008727997749666,10.939513999999999
DEE08,Burgenlandkreis,DE,Germany,51.1554762,11.8132834,322974.07928092254,54.008727997749666,10.939513999999999
DEE09,Harz,DE,Germany,51.716667,10.4,253787.0304210497,53.52789299766521,8.121704000000001
DEE0A,Mansfeld-Südharz,DE,Germany,51.6045104,11.4636002,269864.07182017155,54.008727997749666,10.939513999999999
DEE0B,Saalekreis,DE,Germany,51.38343159999999,11.9864641,300589.7297747817,54.008727997749666,10.939513999999999
DEE0C,Salzlandkreis,DE,Germany,51.7916385,11.7400999,252534.69176942093,54.008727997749666,10.939513999999999
DEE0D,Stendal,DE,Germany,52.6041444,11.8517729,167364.1067064891,54.03911974768265,11.100455574878676
DEE0E,Wittenberg,DE,Germany,51.87046429999999,12.6411506,232388.30913673225,53.757079997706036,14.119689999999995
DEF01,"Flensburg, Kreisfreie Stadt",DE,Germany,54.7937431,9.4469964,31106.374130038323,54.802127368665396,9.930263637434624
DEF02,"Kiel, Kreisfreie Stadt",DE,Germany,54.3232927,10.1227652,24045.71841589534,54.52448859583647,10.257848910125398
DEF03,"Lübeck, Kreisfreie Stadt",DE,Germany,53.8654209,10.6865732,23028.059647153128,54.008727997749666,10.939513999999999
DEF04,"Neumünster, Kreisfreie Stadt",DE,Germany,54.0729431,9.9840158,53292.992496530154,54.51899524326197,10.281867317036184
DEF05,Dithmarschen,DE,Germany,53.9984273,9.2568555,30013.386083203994,54.02087399775173,8.800720000000004
DEF06,Herzogtum Lauenburg,DE,Germany,53.69895349999999,10.7435897,36803.95101258841,54.008727997749666,10.939513999999999
DEF07,Nordfriesland,DE,Germany,54.4855686,9.0566355,31847.3095637932,54.47334660703117,8.565896634404517
DEF08,Ostholstein,DE,Germany,54.1320096,10.6138943,21525.29232676221,54.129121093399334,10.943071840269281
DEF09,Pinneberg,DE,Germany,53.6633556,9.7925675,76457.74153248445,54.02087399775173,8.800720000000004
DEF0A,Plön,DE,Germany,54.16133019999999,10.4259498,33588.59366199409,54.44186515219272,10.616320719996182
DEF0B,Rendsburg-Eckernförde,DE,Germany,54.308135,9.6606645,36862.695749189996,54.59667999784702,9.939696999999997
DEF0C,Schleswig-Flensburg,DE,Germany,54.52497520000001,9.5608476,25781.893911673556,54.59667999784702,9.939696999999997
DEF0D,Segeberg,DE,Germany,53.9332035,10.3035862,42574.5253254298,54.008727997749666,10.939513999999999
DEF0E,Steinburg,DE,Germany,53.7068547,10.3851991,49587.585195400265,54.008727997749666,10.939513999999999
DEF0F,Stormarn,DE,Germany,53.80761529999999,10.3822377,42923.6927771457,54.008727997749666,10.939513999999999
DEG01,"Erfurt, Kreisfreie Stadt",DE,Germany,50.98476789999999,11.0298799,336541.37641919544,54.008727997749666,10.939513999999999
DEG02,"Gera, Kreisfreie Stadt",DE,Germany,50.8850706,12.0807203,348473.0793610432,53.757079997706036,14.119689999999995
DEG03,"Jena, Kreisfreie Stadt",DE,Germany,50.927054,11.5892372,345739.19987859676,54.008727997749666,10.939513999999999
DEG04,"Suhl, Kreisfreie Stadt",DE,Germany,50.6076846,10.6881255,369454.0890232401,53.52789299766521,8.121704000000001
DEG05,"Weimar, Kreisfreie Stadt",DE,Germany,50.9794934,11.3235439,338081.61903448834,54.008727997749666,10.939513999999999
DEG06,Eichsfeld,DE,Germany,51.3770314,10.1439183,275973.35916154325,53.52789299766521,8.121704000000001
DEG07,Nordhausen,DE,Germany,51.4983551,10.7931122,279519.603206772,54.008727997749666,10.939513999999999
DEG09,Unstrut-Hainich-Kreis,DE,Germany,51.2106556,10.4659026,303229.74783773255,53.52789299766521,8.121704000000001
DEG0A,Kyffhäuserkreis,DE,Germany,51.3685747,10.8683186,293824.1158962504,54.008727997749666,10.939513999999999
DEG0B,Schmalkalden-Meiningen,DE,Germany,50.727898,10.4562553,350120.22324456065,53.52789299766521,8.121704000000001
DEG0C,Gotha,DE,Germany,50.9474251,10.7097574,337133.7095150834,53.52789299766521,8.121704000000001
DEG0D,Sömmerda,DE,Germany,51.1594582,11.1188764,317284.96198777616,54.008727997749666,10.939513999999999
DEG0E,Hildburghausen,DE,Germany,50.4263293,10.7312097,388823.3707182701,53.52789299766521,8.121704000000001
DEG0F,Ilm-Kreis,DE,Germany,50.8354931,10.9478015,353091.2593444503,54.008727997749666,10.939513999999999
DEG0G,Weimarer Land,DE,Germany,51.0255891,11.5111264,334206.80690240156,54.008727997749666,10.939513999999999
DEG0H,Sonneberg,DE,Germany,50.3601821,11.1709899,406272.69144937675,54.008727997749666,10.939513999999999
DEG0I,Saalfeld-Rudolstadt,DE,Germany,50.6495243,11.3619973,374888.303404939,54.008727997749666,10.939513999999999
DEG0J,Saale-Holzland-Kreis,DE,Germany,50.9705203,11.89803,344284.4213783344,54.008727997749666,10.939513999999999
DEG0K,Saale-Orla-Kreis,DE,Germany,50.5772446,11.8074105,386383.56427871366,54.008727997749666,10.939513999999999
DEG0L,Greiz,DE,Germany,50.6556322,12.2021724,369134.0910494628,53.757079997706036,14.119689999999995
DEG0M,Altenburger Land,DE,Germany,50.9930363,12.4366972,328212.497249381,53.757079997706036,14.119689999999995
DEG0N,"Eisenach, Kreisfreie Stadt",DE,Germany,50.9795715,10.3146872,320623.5211997053,53.52789299766521,8.121704000000001
DEG0P,Wartburgkreis,DE,Germany,50.8147451,10.2325859,334608.2410898055,53.52789299766521,8.121704000000001
DK011,Byen København,DK,Denmark,55.6760968,12.5683371,16724.52367669926,55.70438851819192,12.829438249418363
DK012,Københavns omegn,DK,Denmark,55.6760968,12.5683371,16724.52367669926,55.70438851819192,12.829438249418363
DK013,Nordsjælland,DK,Denmark,55.9061878,12.2570022,31003.574355299097,55.9593842433849,12.74374512774824
DK014,Bornholm,DK,Denmark,55.160428,14.8668836,55977.54900672306,55.40789799797122,14.100707999999996
DK021,Østsjælland,DK,Denmark,55.4632518,11.7214979,73757.36707544187,55.591697134245045,12.866968382924433
DK022,Vest- og Sydsjælland,DK,Denmark,55.2173722,11.940432,65696.45048347088,55.36187699796447,12.942871000000004
DK031,Fyn,DK,Denmark,55.3290605,10.2352908,30622.806511458915,55.24617264417753,9.77590990845116
DK032,Sydjylland,DK,Denmark,56.029287,9.3358228,47418.67417458704,55.82182932643298,9.998041195036866
DK041,Vestjylland,DK,Denmark,56.0911455,8.6327856,32958.60188128314,56.08754694119257,8.103717112288164
DK042,Østjylland,DK,Denmark,56.32710179999999,10.0481901,25119.57968318952,56.1901249980806,10.370117
DK050,Nordjylland,DK,Denmark,56.8307416,9.4930528,38200.18335946788,57.17158522441691,9.416528640351304
EE001,Põhja-Eesti,EE,Estonia,58.595272,25.013607,41276.25626539435,58.38348399833898,24.429077000000003
EE004,Lääne-Eesti,EE,Estonia,58.9722742,23.8740834,28717.638000853356,58.95110839893415,23.375775911412696
EE008,Lõuna-Eesti,EE,Estonia,58.595272,25.013607,41276.25626539435,58.38348399833898,24.429077000000003
EE009,Kesk-Eesti,EE,Estonia,58.595272,25.013607,41276.25626539435,58.38348399833898,24.429077000000003
EE00A,Kirde-Eesti,EE,Estonia,58.595272,25.013607,41276.25626539435,58.38348399833898,24.429077000000003
EL301,Voreios Tomeas Athinon,EL,Greece,38.0708395,23.8346776,17138.959023690237,38.07132359857672,24.02898512894063
EL302,Dytikos Tomeas Athinon,EL,Greece,38.01392999999999,23.6799766,26593.844684692114,37.78729939739289,23.583354208478614
EL303,Kentrikos Tomeas Athinon,EL,Greece,37.9787044,23.7513827,24733.948386392236,37.979536789113006,24.03141052626771
EL304,Notios Tomeas Athinon,EL,Greece,37.9556448,23.6987982,21065.129878874082,37.77614616298498,23.62224039202045
EL305,Anatoliki Attiki,EL,Greece,38.2054093,23.8584737,10116.217951540915,38.27870709264437,23.925693464038652
EL306,Dytiki Attiki,EL,Greece,38.0968393,23.429984,27807.9938344496,37.85959011383778,23.32967962527682
EL307,"Peiraias, Nisoi",EL,Greece,37.9429857,23.6469832,18186.95519571745,37.78797590728792,23.58099338885992
EL411,"Lesvos, Limnos",EL,Greece,39.2645095,26.2777073,9638.16973357197,39.326744463529394,26.3539613877107
EL412,"Ikaria, Samos",EL,Greece,37.7587341,26.9714842,3703.847791318195,37.73477247908417,26.94295257716142
EL413,Chios,EL,Greece,38.36818239999999,26.1310056,22351.018140513675,38.27615774335153,26.36022076089479
EL421,"Kalymnos, Karpathos, Kasos, Kos, Rodos",EL,Greece,36.9533092,26.9798133,39716.600413904875,37.10328761838947,27.378605335840355
EL422,"Andros, Thira, Kea, Milos, Mykonos, Naxos, Paros, Syros, Tinos",EL,Greece,37.43850279999999,24.9139344,80777.13058099723,37.65508999200043,24.040099999999995
EL431,Irakleio,EL,Greece,35.3387352,25.1442126,214616.29416864883,36.42248499136867,23.154297000000003
EL432,Lasithi,EL,Greece,35.0811693,25.7101789,250427.8593939907,36.658874991490535,27.64129599999999
EL433,Rethymni,EL,Greece,35.36555450000001,24.4919838,166557.5982011037,36.42248499136867,23.154297000000003
EL434,Chania,EL,Greece,35.5138298,24.0180367,125868.26827447707,36.42248499136867,23.154297000000003
EL511,Evros,EL,Greece,41.2443761,26.1359431,47200.421311034996,40.824096993551194,26.056885000000012
EL512,Xanthi,EL,Greece,41.1362513,24.8877024,21164.299417847844,40.94708299360832,24.925902999999998
EL513,Rodopi,EL,Greece,41.1175102,25.4058674,27839.754387857614,40.87339707045297,25.33372441209996
EL514,Drama,EL,Greece,41.1502273,24.1469489,39107.93840089419,40.8105065766167,24.279512289263035
EL515,"Thasos, Kavala",EL,Greece,40.9425965,24.425739,10707.324018740763,40.84950414190817,24.461667503632235
EL521,Imathia,EL,Greece,40.60600669999999,22.1430215,55235.58486712051,40.32907599991447,22.688139264216975
EL522,Thessaloniki,EL,Greece,40.6400629,22.9444191,21403.158400867396,40.47607399338808,22.814087000000004
EL523,Kilkis,EL,Greece,40.99370709999999,22.8753674,57635.2001267132,40.47607399338808,22.814087000000004
EL524,Pella,EL,Greece,40.9148039,22.1430215,74297.0930114823,40.47607399338808,22.814087000000004
EL525,Pieria,EL,Greece,40.26690990000001,22.4768287,12790.819643184082,40.25653099328407,22.626281999999996
EL526,Serres,EL,Greece,41.0863854,23.5483819,46223.65165860773,40.68707299348719,23.714904999999998
EL527,Chalkidiki,EL,Greece,40.3694997,23.287085,24398.2612805729,40.2344524173698,23.06363269265145
EL531,"Grevena, Kozani",EL,Greece,40.2955218,21.7856879,71803.42791315996,40.25653099328407,22.626281999999996
EL532,Kastoria,EL,Greece,40.5192691,21.2687171,118873.04485922672,40.25653099328407,22.626281999999996
EL533,Florina,EL,Greece,40.78452619999999,21.4131222,117860.1817116607,40.25653099328407,22.626281999999996
EL541,"Arta, Preveza",EL,Greece,39.1582421,20.9876839,43256.69628467759,38.936182156946835,20.58193969653502
EL542,Thesprotia,EL,Greece,39.4935011,20.3785438,16790.38409311426,39.46773493887712,20.18750801572272
EL543,Ioannina,EL,Greece,39.66502880000001,20.8537466,60604.92301597562,39.573691444238094,20.162329693793264
EL611,"Karditsa, Trikala",EL,Greece,39.3640258,21.9214049,87004.36583599448,39.659301992997364,22.849669999999993
EL612,Larisa,EL,Greece,39.63902239999999,22.4191254,36384.71826066925,39.72676469339171,22.824614192291772
EL613,"Magnisia, Sporades",EL,Greece,39.116667,23.716667,32702.345416999276,39.19012499276843,23.350098000000003
EL621,Zakynthos,EL,Greece,37.7870331,20.8998759,31139.257326817376,37.84171719017571,21.24366066663011
EL622,Kerkyra,EL,Greece,39.6242621,19.9216777,9362.5841961142,39.695128993014734,19.980103000000003
EL623,"Ithaki, Kefallinia",EL,Greece,38.1526611,20.773795,33553.13561470839,38.21194012805552,21.146163165767057
EL624,Lefkada,EL,Greece,38.8333663,20.7069108,2381.0101366397935,38.821117016441185,20.684673511836255
EL631,Aitoloakarnania,EL,Greece,38.7084386,21.3798928,43650.6260964614,38.4919505936753,20.966783858518344
EL632,Achaia,EL,Greece,38.1158729,21.9522491,67636.8360956128,38.00123035751599,21.20175636121818
EL633,Ileia,EL,Greece,37.7045099,21.5706786,25326.887586900302,37.62600930719508,21.304141370108926
EL641,Voiotia,EL,Greece,38.3663664,23.0965064,38817.24288243462,38.60683095110295,23.41403786845987
EL642,Evvoia,EL,Greece,38.5,24.0,23740.38319841174,38.32808943612107,23.841697401403824
EL643,Evrytania,EL,Greece,39.0032334,21.7137694,86197.13167970059,38.57703696467005,20.894624109459393
EL644,Fthiotida,EL,Greece,38.999785,22.3337769,55683.22326620976,38.97088599266044,22.973083
EL645,Fokida,EL,Greece,38.5598641,22.1430215,86159.66090142383,38.97088599266044,22.973083
EL651,"Argolida, Arkadia",EL,Greece,37.6525404,22.858217,33368.490323627775,37.77667489449729,23.198511324522947
EL652,Korinthia,EL,Greece,37.9386365,22.9322383,16259.528131437968,37.9201049921348,23.115111999999996
EL653,"Lakonia, Messinia",EL,Greece,37.1424653,21.9522491,35400.38245855377,37.03388205852679,21.582345697256066
ES111,A Coruña,ES,Spain,43.3637626,-8.4103923,15452.627490542975,43.47726409178233,-8.517918190834806
ES112,Lugo,ES,Spain,43.0071361,-7.556398600000001,74001.33380598805,43.65948520224451,-7.361411528945297
ES113,Ourense,ES,Spain,42.33578929999999,-7.863880999999998,93717.52483959359,42.370158918862714,-9.00007566467588
ES114,Pontevedra,ES,Spain,42.4298846,-8.6446202,28866.109957493758,42.43908001571932,-8.995211009671888
ES120,Asturias,ES,Spain,43.2504393,-5.983257699999999,35931.300552113855,43.573738938511084,-5.979270074634098
ES130,Cantabria,ES,Spain,43.1828396,-3.9878427,27045.392906527235,43.42545182087606,-4.012819481174411
ES211,Araba/Álava,ES,Spain,42.9099989,-2.6983868,59051.212558591906,43.44180045825537,-2.6697684076191
ES212,Gipuzkoa,ES,Spain,43.0756299,-2.2236667,39464.53009021797,43.43099160812004,-2.201729560744099
ES213,Bizkaia,ES,Spain,43.2204286,-2.6983868,24622.925321025898,43.4421475983493,-2.6865386958149284
ES220,Navarra,ES,Spain,42.6953909,-1.6760691,82974.72108959818,43.42291299469579,-1.9013060000000046
ES230,La Rioja,ES,Spain,42.2870733,-2.539603,127714.6236876259,43.437536147542694,-2.4737133167295062
ES241,Huesca,ES,Spain,42.131845,-0.4078058,161048.430567435,41.01470899363962,0.8104860000000043
ES242,Teruel,ES,Spain,40.3456879,-1.1064345,106182.46884948357,40.028378036899404,0.06088872005545044
ES243,Zaragoza,ES,Spain,41.6474339,-0.8861451,159392.18606632075,41.01470899363962,0.8104860000000043
ES300,Madrid,ES,Spain,40.41672790000001,-3.7032905,319257.24546858366,39.513856790750204,-0.1830983631678303
ES411,Ávila,ES,Spain,40.656685,-4.6812086,305609.06827260554,43.40350299468776,-4.3477780000000035
ES412,Burgos,ES,Spain,42.3504659,-3.689354499999999,121268.72804078361,43.43915290770313,-3.7946067578995244
ES413,León,ES,Spain,42.59836110000001,-5.5718779,108431.48713462734,43.574441429457714,-5.551970905021918
ES414,Palencia,ES,Spain,42.0096857,-4.5288016,155249.97089468074,43.40350299468776,-4.3477780000000035
ES415,Salamanca,ES,Spain,40.9701039,-5.663539699999999,262360.02842217876,40.875878385545384,-8.774591485447308
ES416,Segovia,ES,Spain,40.9429032,-4.108806899999999,274000.6930288603,43.40350299468776,-4.3477780000000035
ES417,Soria,ES,Spain,41.766436,-2.4790872,185230.28578889123,43.435381460673135,-2.3807503230158273
ES418,Valladolid,ES,Spain,41.6543639,-4.722273299999999,196166.57142072683,43.40350299468776,-4.3477780000000035
ES419,Zamora,ES,Spain,41.5034712,-5.7467879,229950.33220345172,43.57439420220373,-5.707291908367657
ES421,Albacete,ES,Spain,38.9943983,-1.860173,141247.36523434313,39.310119992827275,-0.2786870000000087
ES422,Ciudad Real,ES,Spain,38.9848295,-3.927377799999999,255321.1386844268,36.672606558379414,-4.048208405497922
ES423,Cuenca,ES,Spain,40.0703925,-2.1374162,179705.2882091129,39.54574542098805,-0.16808496231245934
ES424,Guadalajara,ES,Spain,40.632489,-3.16017,282498.15726377274,39.823015788704765,-0.03694393730712156
ES425,Toledo,ES,Spain,39.8628296,-4.0273067,329903.3295678873,39.310119992827275,-0.2786870000000087
ES431,Badajoz,ES,Spain,38.8781352,-6.9704837,175398.67624523008,38.2662959923093,-8.84002699999999
ES432,Cáceres,ES,Spain,39.4755328,-6.3734664,232964.1606163004,39.755126993043774,-9.048279000000031
ES511,Barcelona,ES,Spain,41.3873974,2.168568,8635.712514870691,41.330686300604995,2.238618253041475
ES512,Girona,ES,Spain,41.9794005,2.8214264,17418.03638644229,41.991370554506176,3.0304703733298135
ES513,Lleida,ES,Spain,41.6168393,0.6204561,68694.94080400527,41.01470899363962,0.8104860000000043
ES514,Tarragona,ES,Spain,41.1188827,1.2444909,3313.1511788097614,41.089644447896504,1.2525814969310964
ES521,Alicante/Alacant,ES,Spain,38.3457685,-0.4909444,5710.962324047107,38.30900664684521,-0.44587900146446746
ES522,Castellón/Castelló,ES,Spain,40.1451772,-0.1494988,21451.9994266862,40.07986322644634,0.08551062055448985
ES523,Valencia/València,ES,Spain,39.4738338,-0.3756348,14155.022039789743,39.431095335840055,-0.2219972311949343
ES531,Eivissa y Formentera,ES,Spain,38.6964006,1.4531355,117493.87140425897,38.73852499254531,0.11132800000000093
ES532,Mallorca,ES,Spain,39.6952629,3.0175712,187309.17736849026,41.226073993736954,2.0919189999999994
ES533,Menorca,ES,Spain,39.9496287,4.1104449,220791.03322594278,41.419849055690946,2.3642703136823653
ES611,Almería,ES,Spain,36.8512151,-2.4521658,19752.514635833842,36.67197716885493,-2.4539383012610303
ES612,Cádiz,ES,Spain,36.5210142,-6.2804565,2586.798079596793,36.51182855083092,-6.30714630652148
ES613,Córdoba,ES,Spain,37.8893025,-4.779275300000001,139353.03491415628,36.67791699150032,-4.368895999999999
ES614,Granada,ES,Spain,37.1824607,-3.601167599999999,57178.61062232538,36.66405226642724,-3.631781398238394
ES615,Huelva,ES,Spain,37.2619585,-6.9427327,26644.786013057015,37.02546537596418,-7.009710883968137
ES616,Jaén,ES,Spain,37.779552,-3.7849699,122568.92494377408,36.66870495907284,-3.8468840345763633
ES617,Málaga,ES,Spain,36.7178196,-4.425557,6575.046643445244,36.668839654989476,-4.385155862754612
ES618,Sevilla,ES,Spain,37.3890924,-5.9844589,67844.94533444612,36.94287099163652,-6.520202999999915
ES620,Murcia,ES,Spain,37.9893044,-1.1320073,48337.80326854699,37.88375218324798,-0.6034956358479304
FI193,Keski-Suomi,FI,Finland,62.5666743,25.5549445,209557.8019833603,63.618981851734034,22.150305807581038
FI194,Etelä-Pohjanmaa,FI,Finland,62.9433099,23.5285266,99941.44647035874,63.43301112311638,21.881369715041227
FI195,Pohjanmaa,FI,Finland,63.28620240000001,21.4765525,8330.839985328425,63.24641292741874,21.615735144265805
FI196,Satakunta,FI,Finland,61.59327580000001,22.148308,33282.04973103489,61.624710784049405,21.526062691714444
FI197,Pirkanmaa,FI,Finland,61.6986918,23.7895598,118876.21299704848,61.70532199862372,21.544922000000007
FI1B1,Helsinki-Uusimaa,FI,Finland,60.16985569999999,24.938379,1808.6578887789422,60.154957156083896,24.950939461975643
FI1C1,Varsinais-Suomi,FI,Finland,60.36279139999999,22.4439369,5902.848276611284,60.33754986033648,22.349474720636454
FI1C2,Kanta-Häme,FI,Finland,60.90701499999999,24.3005498,91489.37005263432,60.1545471551849,24.94901167923036
FI1C3,Päijät-Häme,FI,Finland,61.3230041,25.7322496,104580.63233861224,60.42388899852635,26.255310000000012
FI1C4,Kymenlaakso,FI,Finland,60.59772,27.2591176,14125.673656795983,60.47170103007738,27.27855344810305
FI1C5,Etelä-Karjala,FI,Finland,61.2033481,28.6226138,83370.37410602448,60.50347899853283,28.070129000000005
FI1D1,Etelä-Savo,FI,Finland,61.6945148,27.8005015,133873.7888276052,60.4994018536299,27.96191127713547
FI1D2,Pohjois-Savo,FI,Finland,62.94236739999999,27.7043601,259522.89434253893,64.56035756615768,23.981485750757273
FI1D3,Pohjois-Karjala,FI,Finland,62.8062078,30.1553887,278387.0083735529,60.50347899853283,28.070129000000005
FI1D5,Keski-Pohjanmaa,FI,Finland,63.5621735,24.001363,76871.4969398043,64.02423522459932,22.85896183250009
FI1D7,Lappi,FI,Finland,67.9222304,26.5046438,239299.30371325856,66.00689699887518,23.903502999999994
FI1D8,Kainuu,FI,Finland,64.3736564,28.7437475,180773.3779663629,65.11151099882966,25.398070999999998
FI1D9,Pohjois-Pohjanmaa,FI,Finland,64.7151463,26.018763,53437.37435267545,65.10250782099455,25.368941231150067
FI200,Åland,FI,Finland,61.92410999999999,25.748151,169902.98270178033,60.42388899852635,26.255310000000012
FR101,Paris,FR,France,48.8575475,2.3513765,159331.75323247866,50.127318996932296,1.3386840000000024
FR102,Seine-et-Marne ,FR,France,48.841082,2.999366,187114.62366574848,50.127318996932296,1.3386840000000024
FR103,Yvelines ,FR,France,48.7850939,1.8256572,149694.72436160658,49.98901877967191,0.9098984960072828
FR104,Essonne,FR,France,48.4585698,2.1569416,193084.52483834012,50.01383778157078,0.9863093762239618
FR105,Hauts-de-Seine ,FR,France,48.828508,2.2188068,157973.38687348145,50.102268328801756,1.2604704710054904
FR106,Seine-Saint-Denis ,FR,France,48.9137455,2.4845729,158615.49408995302,50.127318996932296,1.3386840000000024
FR107,Val-de-Marne,FR,France,48.7931426,2.4740337,169881.63200489586,50.127318996932296,1.3386840000000024
FR108,Val-d’Oise,FR,France,49.0615901,2.1581351,132671.27535102543,50.127318996932296,1.3386840000000024
FRB01,Cher,FR,France,46.954005,2.4671908,299317.47259498184,46.014892995689074,-1.1937869999999082
FRB02,Eure-et-Loir,FR,France,48.5525242,1.1989814,152450.19689966,49.773191904460234,0.2550109376753125
FRB03,Indre,FR,France,46.6613966,1.4482662,215328.61179006475,46.014892995689074,-1.1937869999999082
FRB04,Indre-et-Loire,FR,France,47.28949249999999,0.816097,205650.72126288692,46.27460780841028,-1.4440373381362264
FRB05,Loir-et-Cher,FR,France,47.6761905,1.4159072,247048.79283845337,49.65403069056578,-0.09944312979474264
FRB06,Loiret,FR,France,47.900771,2.2018172,250468.9656714317,49.91692747077634,0.6892561785756762
FRC11,Côte-d’Or,FR,France,47.5126795,4.635412,378669.5262881646,50.127318996932296,1.3386840000000024
FRC12,Nièvre,FR,France,47.2381708,3.5294522,359883.64152968326,50.127318996932296,1.3386840000000024
FRC13,Saône-et-Loire,FR,France,46.5827512,4.486670999999999,353307.33302657783,43.39971899468621,4.556885000000002
FRC14,Yonne,FR,France,47.8652728,3.6079823,301738.25555672904,50.127318996932296,1.3386840000000024
FRC21,Doubs,FR,France,46.92760000000001,6.349000999999999,340730.00464931,44.23132299502246,8.428711
FRC22,Jura,FR,France,46.76247499999999,5.6729159,354417.8872506268,44.23132299502246,8.428711
FRC23,Haute-Saône,FR,France,47.7569806,6.1556282,429460.7536293636,44.23132299502246,8.428711
FRC24,Territoire de Belfort,FR,France,47.59465729999999,6.920771599999999,389675.35528971197,44.356945477603496,8.856814127453818
FRD11,Calvados,FR,France,49.1213315,-0.4330578,41306.69217931474,49.44889912900158,-0.6983370760076121
FRD12,Manche,FR,France,49.114712,-1.3115949,31143.370708652557,49.06448926564035,-1.7319559283951145
FRD13,Orne,FR,France,48.6388567,0.0848201,106574.68729921133,49.48613114445556,-0.5906692092190582
FRD21,Eure,FR,France,49.11817629999999,0.9582114,88194.12748317249,49.823978115723214,0.4075937184056852
FRD22,Seine-Maritime,FR,France,49.60541869999999,0.9748439,40261.478716451165,49.9279523209175,0.7228738773519889
FRE11,Nord,FR,France,50.3851246,3.2642436,98476.10109456965,51.208952481911865,2.755951737863041
FRE12,Pas-de-Calais,FR,France,50.5732769,2.3244679,55725.690549213235,51.043452039418845,2.053836542424512
FRE21,Aisne,FR,France,49.4769199,3.4417368,167816.18704277193,50.127318996932296,1.3386840000000024
FRE22,Oise,FR,France,49.42145679999999,2.4146396,110412.35989219321,50.127318996932296,1.3386840000000024
FRE23,Somme,FR,France,49.914518,2.2707095,70851.81621807553,50.127318996932296,1.3386840000000024
FRF11,Bas-Rhin,FR,France,48.6343172,7.525293800000001,424436.83766886237,51.60577183222341,3.8024599961441647
FRF12,Haut-Rhin,FR,France,47.9315041,7.2441099,415853.8345327758,44.36627199507555,8.888915999999996
FRF21,Ardennes,FR,France,49.7624642,4.6285053,199323.99144200576,51.34588599722379,3.315124999999999
FRF22,Aube,FR,France,48.1563418,4.3732462,311797.53804664576,50.127318996932296,1.3386840000000024
FRF23,Marne,FR,France,49.128754,4.1475445,231397.00729751127,50.127318996932296,1.3386840000000024
FRF24,Haute-Marne,FR,France,48.1260968,5.1071322,354003.8166385123,50.127318996932296,1.3386840000000024
FRF31,Meurthe-et-Moselle ,FR,France,48.7997007,6.094701400000001,346237.467182023,51.34588599722379,3.315124999999999
FRF32,Meuse ,FR,France,49.0824319,5.282399700000001,288413.97875634,51.34588599722379,3.315124999999999
FRF33,Moselle,FR,France,49.0983839,6.5527641,339910.10830477596,51.46107170402119,3.5299910914932036
FRF34,Vosges,FR,France,48.1446427,6.3355935,417460.70781904965,51.34588599722379,3.315124999999999
FRG01,Loire-Atlantique,FR,France,47.27804680000001,-1.8157647,38986.9124490403,47.06451399604549,-2.2257080000000355
FRG02,Maine-et-Loire,FR,France,47.2913545,-0.4877852,123018.65431382101,46.673806399249806,-1.8351291767706872
FRG03,Mayenne,FR,France,48.3061239,-0.620935,82739.83269401906,48.64446999653119,-1.6165159999999636
FRG04,Sarthe,FR,France,47.9217014,0.1655803,154953.50012894673,48.64446999653119,-1.6165159999999636
FRG05,Vendée,FR,France,46.6613966,-1.4482662,23662.9042244765,46.541642839165746,-1.7047713446516846
FRH01,Côtes-d’Armor,FR,France,48.5152204,-2.7662789,33469.399660932366,48.80809665952044,-2.662839073921909
FRH02,Finistère,FR,France,48.2520249,-3.9300525,44413.2539480944,48.215054012904574,-4.526962908506676
FRH03,Ille-et-Vilaine,FR,France,48.2292016,-1.5300695,46706.82036318018,48.64446999653119,-1.6165159999999636
FRH04,Morbihan,FR,France,47.8852929,-2.9001865,34347.29245652092,47.59751513368525,-3.0676615084712986
FRI11,Dordogne,FR,France,45.14694859999999,0.7572205,159624.38457751248,45.25304750399482,-1.2671994497406558
FRI12,Gironde,FR,France,44.84966499999999,-0.4502368,67509.87494620268,44.889555696501645,-1.3019616185150533
FRI13,Landes,FR,France,43.9412045,-0.7532808999999999,51540.159525627634,44.02270499493963,-1.3842159999999912
FRI14,Lot-et-Garonne,FR,France,44.2470173,0.4502368,144571.60310976065,44.340295990473585,-1.3541827038201018
FRI15,Pyrénées-Atlantiques,FR,France,43.3269942,-0.7532808999999999,84772.51081573743,43.73200130349987,-1.6363472795228529
FRI21,Corrèze,FR,France,45.372114,1.873739,244408.65997884783,45.55125968873958,-1.2385546120497128
FRI22,Creuse,FR,France,46.03776329999999,2.0627832,252142.3677125687,46.014892995689074,-1.1937869999999082
FRI23,Haute-Vienne,FR,France,45.7435173,1.4025484,203479.86006341368,45.88690505778854,-1.2061742360630836
FRI31,Charente,FR,France,45.7519958,0.1534761,106541.45278872777,45.81895236929234,-1.212741947155323
FRI32,Charente-Maritime,FR,France,45.74948999999999,-0.7733188,34638.94760367233,45.76929961485655,-1.2175370095653535
FRI33,Deux-Sèvres,FR,France,46.5926541,-0.3962844,86399.96234561045,46.16154374523805,-1.3346938574755534
FRI34,Vienne,FR,France,45.525587,4.874339,237091.709472465,43.39971899468621,4.556885000000002
FRJ11,Aude,FR,France,43.0724667,2.3813621,58166.07349034873,43.0046262730641,3.086992697809444
FRJ12,Gard,FR,France,43.9446996,4.1513764,67317.78971523739,43.36273457972945,4.385233572776454
FRJ13,Hérault,FR,France,43.5912356,3.2583626,50840.621069192246,43.15330194535545,3.4409110666586264
FRJ14,Lozère,FR,France,44.494203,3.5812692,138977.07683109093,43.29518371030323,4.075620981413654
FRJ15,Pyrénées-Orientales,FR,France,42.6012912,2.539603,38398.408296778376,42.55626667667512,3.001778486507784
FRJ21,Ariège,FR,France,42.9326292,1.443469,132322.3183274878,42.785951641740084,3.0453000433476163
FRJ22,Aveyron,FR,France,44.2179747,2.6189273,132768.5726787312,43.07703153097218,3.107946644941087
FRJ23,Haute-Garonne,FR,France,43.4010462,1.135302,164198.81562398674,43.075316994550874,3.100525000000004
FRJ24,Gers,FR,France,43.6366479,0.4502368,154136.67294558368,44.02270499493963,-1.3842159999999912
FRJ25,Lot,FR,France,44.5379358,1.6760691,199293.69078602636,43.075316994550874,3.100525000000004
FRJ26,Hautes-Pyrénées,FR,France,43.0193924,0.1494988,165320.76601222772,43.817772144336914,-1.562255871229244
FRJ27,Tarn,FR,France,43.9264401,1.9881527,130894.13656247307,43.075316994550874,3.100525000000004
FRJ28,Tarn-et-Garonne,FR,France,44.0126679,1.2891036,180286.8403219162,43.075316994550874,3.100525000000004
FRK11,Allier,FR,France,46.3115552,3.4167655,335841.63722843805,43.39971899468621,4.556885000000002
FRK12,Cantal,FR,France,45.1191997,2.6326062,227804.83934015135,43.160755955544325,3.47375257379437
FRK13,Haute-Loire,FR,France,45.0821226,3.9266366,193512.9374971541,43.39971899468621,4.556885000000002
FRK14,Puy-de-Dôme,FR,France,45.7801582,3.0821043,287142.41913501767,43.306492020194234,4.1271069497793285
FRK21,Ain,FR,France,46.2475706,5.1307681,319093.4520742475,43.39971899468621,4.556885000000002
FRK22,Ardèche,FR,France,44.759629,4.5624426,150820.40129461742,43.39971899468621,4.556885000000002
FRK23,Drôme,FR,France,44.73118960000001,5.2266675,154687.27898518302,43.35831515527098,4.878732065492093
FRK24,Isère,FR,France,44.9957745,5.9293476,188148.93818859037,43.69390899480698,7.435302999999999
FRK25,Loire,FR,France,46.32292990875975,1.067424858710008,177735.90444233728,46.014892995689074,-1.1937869999999082
FRK26,Rhône,FR,France,45.7351456,4.6108043,259121.96886805876,43.39971899468621,4.556885000000002
FRK27,Savoie,FR,France,45.4932045,6.472399999999999,208931.8323343731,44.23132299502246,8.428711
FRK28,Haute-Savoie,FR,France,46.1756788,6.5389621,262200.9480372959,44.23132299502246,8.428711
FRL01,Alpes-de-Haute-Provence,FR,France,44.07787159999999,6.2375947,95138.19274685015,43.42756761340601,7.0044334079978166
FRL02,Hautes-Alpes ,FR,France,44.6008723,6.322607199999999,134554.90957052913,43.67884245617074,7.410745219351221
FRL03,Alpes-Maritimes,FR,France,43.9466791,7.179025999999999,34849.78918003703,43.69390899480698,7.435302999999999
FRL04,Bouches-du-Rhône,FR,France,43.59116789999999,5.3102505,31600.52855936616,43.310728523961906,5.2386778176959945
FRL05,Var,FR,France,43.46764599999999,6.2375947,32179.617537817867,43.18267860680257,6.160346695305218
FRL06,Vaucluse,FR,France,44.0565054,5.1432068,79908.9052121589,43.347126383384065,4.964292605438241
FRM01,Corse-du-Sud,FR,France,41.8102633,8.9245343,180537.71005873158,42.90300648455332,10.546180764325005
FRM02,Haute-Corse,FR,France,42.4097877,9.2785583,116729.31429671687,42.931518994490105,10.512085000000003
HR021,Bjelovarsko-bilogorska županija,HR,Croatia,45.7809992,16.9936575,181860.04561009127,45.07611099534765,14.901672000000003
HR022,Virovitičko-podravska županija,HR,Croatia,45.83203410000001,17.386757,212188.24006774358,45.07611099534765,14.901672000000003
HR023,Požeško-slavonska županija,HR,Croatia,45.3417868,17.8114359,224228.78735026732,44.317870995056566,15.376282
HR024,Brodsko-posavska županija,HR,Croatia,45.2637951,17.3264562,187175.41590984634,44.317870995056566,15.376282
HR025,Osječko-baranjska županija,HR,Croatia,45.5576428,18.3942141,275854.7840147147,44.317870995056566,15.376282
HR026,Vukovarsko-srijemska županija,HR,Croatia,45.1773552,18.8053527,265622.97069716995,43.210082994607376,16.930115
HR027,Karlovačka županija,HR,Croatia,45.2389445,15.3980067,43108.64501428978,45.07611099534765,14.901672000000003
HR028,Sisačko-moslavačka županija,HR,Croatia,45.3837926,16.5380995,133236.04150743506,45.07611099534765,14.901672000000003
HR031,Primorsko-goranska županija,HR,Croatia,45.31739959999999,14.8167466,23090.474390837462,45.120976150900724,14.720821739158136
HR032,Ličko-senjska županija,HR,Croatia,44.6192218,15.4701608,26406.004782041637,44.47396728706694,15.208096482730769
HR033,Zadarska županija,HR,Croatia,44.1318273,15.4556962,9373.558660137624,44.077859887454295,15.366061027215782
HR034,Šibensko-kninska županija,HR,Croatia,43.9281485,16.1037694,35180.2533007463,43.72727134446184,15.76716536959705
HR035,Splitsko-dalmatinska županija,HR,Croatia,43.5240328,16.8178377,28060.416366031088,43.29313283505769,16.677971877617555
HR036,Istarska županija,HR,Croatia,45.1286455,13.901542,15828.067662253325,45.05306573959094,13.731539241713676
HR037,Dubrovačko-neretvanska županija,HR,Croatia,43.0766588,17.5268471,20104.032115083206,42.93860405663656,17.368465044751034
HR050,Grad Zagreb,HR,Croatia,45.8150108,15.981919,118035.29349619069,45.07611099534765,14.901672000000003
HR061,Međimurska županija,HR,Croatia,46.3766644,16.4213298,187041.98605154824,45.07611099534765,14.901672000000003
HR062,Varaždinska županija,HR,Croatia,46.23174729999999,16.3360558,170533.44821665602,45.07611099534765,14.901672000000003
HR063,Koprivničko-križevačka županija,HR,Croatia,46.1639381,16.8334752,193535.2780078351,45.07611099534765,14.901672000000003
HR064,Krapinsko-zagorska županija,HR,Croatia,46.10133930000001,15.8809693,137344.27499594266,45.07611099534765,14.901672000000003
HR065,Zagrebačka županija,HR,Croatia,45.8706612,16.395491,146711.6740809013,45.07611099534765,14.901672000000003
HU110,Budapest,HU,Hungary,47.497912,19.040235,418020.7089454012,45.07611099534765,14.901672000000003
HU120,Pest,HU,Hungary,47.5002356,19.1000054,421718.1519200346,45.07611099534765,14.901672000000003
HU211,Fejér,HU,Hungary,47.1217932,18.5294815,361718.7975425951,45.07611099534765,14.901672000000003
HU212,Komárom-Esztergom,HU,Hungary,47.7390852,18.1267006,386674.0963431738,45.07611099534765,14.901672000000003
HU213,Veszprém,HU,Hungary,47.1028087,17.9093019,324329.10314730403,45.07611099534765,14.901672000000003
HU221,Győr-Moson-Sopron,HU,Hungary,47.6509285,17.2505883,338856.8660385754,45.07611099534765,14.901672000000003
HU222,Vas,HU,Hungary,47.09291109999999,16.6812183,263310.9185458116,45.07611099534765,14.901672000000003
HU223,Zala,HU,Hungary,46.73844039999999,16.9152252,242310.51985126044,45.07611099534765,14.901672000000003
HU231,Baranya,HU,Hungary,46.0484585,18.2719173,284991.1427846678,45.07611099534765,14.901672000000003
HU232,Somogy,HU,Hungary,46.554859,17.5866732,266116.25819372147,45.07611099534765,14.901672000000003
HU233,Tolna,HU,Hungary,46.4258265,18.7752069,337297.9118808382,45.07611099534765,14.901672000000003
HU311,Borsod-Abaúj-Zemplén,HU,Hungary,48.2939401,20.6934113,570216.7717401094,45.07611099534765,14.901672000000003
HU312,Heves,HU,Hungary,47.5971694,20.280156,500789.1495167195,45.07611099534765,14.901672000000003
HU313,Nógrád,HU,Hungary,47.90410310000001,19.0498504,448146.25167387025,45.07611099534765,14.901672000000003
HU321,Hajdú-Bihar,HU,Hungary,47.4688355,21.5453228,577854.6318784575,45.07611099534765,14.901672000000003
HU322,Jász-Nagykun-Szolnok,HU,Hungary,47.2555579,20.5232456,497963.38461714715,45.07611099534765,14.901672000000003
HU323,Szabolcs-Szatmár-Bereg,HU,Hungary,48.0394954,22.00333,625906.176266023,44.91387899528654,28.83789099999999
HU331,Bács-Kiskun,HU,Hungary,46.5661437,19.4272464,389427.1220104484,45.07611099534765,14.901672000000003
HU332,Békés,HU,Hungary,46.7711185,21.1289753,517253.932220874,43.210082994607376,16.930115
HU333,Csongrád,HU,Hungary,46.7084264,20.1436061,446204.5344923201,45.07611099534765,14.901672000000003
IE041,Border,IE,Ireland,54.55181260000001,-7.215162550000001,643047.5797924326,49.77648899684208,-1.933410999999899
IE042,West,IE,Ireland,53.77975540000001,-7.3055309,579800.763585266,49.77648899684208,-1.933410999999899
IE051,Mid-West,IE,Ireland,53.77975540000001,-7.3055309,579800.763585266,49.77648899684208,-1.933410999999899
IE052,South-East (IE),IE,Ireland,52.5698681,-7.1976382,471489.93773881765,48.684081996542524,-4.59228500000003
IE053,South-West (IE),IE,Ireland,53.41291,-8.24389,586829.7974497969,48.684081996542524,-4.59228500000003
IE061,Dublin,IE,Ireland,53.3498053,-6.2603097,498556.38692328724,49.77648899684208,-1.933410999999899
IE062,Mid-East,IE,Ireland,53.77975540000001,-7.3055309,579800.763585266,49.77648899684208,-1.933410999999899
IE063,Midland,IE,Ireland,53.77975540000001,-7.3055309,579800.763585266,49.77648899684208,-1.933410999999899
IM000,Isle of Man,IM,Isle of Man,54.236107,-4.548056,528677.33866506,49.77648899684208,-1.933410999999899
IS001,Höfuðborgarsvæði,IS,Iceland,64.1846369,-21.6131424,1351096.2321657238,61.97112999864236,4.992126000000004
IS002,Landsbyggð,IS,Iceland,64.963051,-19.020835,1229199.782241042,61.97112999864236,4.992126000000004
ITC11,Torino,IT,Italy,45.0703155,7.6868552,110226.53170089635,44.23132299502246,8.428711
ITC12,Vercelli,IT,Italy,45.3207342,8.4180379,112284.67774445665,44.36627199507555,8.888915999999996
ITC13,Biella,IT,Italy,45.56288420000001,8.0583397,147773.90636550012,44.330685567583366,8.766666930213578
ITC14,Verbano-Cusio-Ossola,IT,Italy,46.1399688,8.2724649,202728.49467109804,44.36627199507555,8.888915999999996
ITC15,Novara,IT,Italy,45.4467749,8.6168696,121798.18447743794,44.36627199507555,8.888915999999996
ITC16,Cuneo,IT,Italy,44.3844766,7.5426711,64079.29387305028,43.9992418020059,8.138054716041877
ITC17,Asti,IT,Italy,44.900765,8.206434999999999,75419.57015591706,44.27181649684815,8.565845017987309
ITC18,Alessandria,IT,Italy,44.9072727,8.6116796,63940.60199796275,44.36627199507555,8.888915999999996
ITC20,Valle d’Aosta/Vallée d’Aoste,IT,Italy,45.7388878,7.426186599999999,185148.60920261327,44.23132299502246,8.428711
ITC31,Imperia,IT,Italy,43.8897316,8.0393482,2232.868070044051,43.9031965293465,8.018754332168538
ITC32,Savona,IT,Italy,44.3034046,8.4743315,6013.942871038033,44.253212351064384,8.502740288729859
ITC33,Genova,IT,Italy,44.4071448,8.934738099999999,5736.416607216154,44.3619050726128,8.899851724108789
ITC34,La Spezia,IT,Italy,44.1024504,9.8240826,9952.447827191456,44.01694450278303,9.786315660388825
ITC41,Varese,IT,Italy,45.8182892,8.8252083,161179.4691274016,44.36627199507555,8.888915999999996
ITC42,Como,IT,Italy,45.8063817,9.0851867,160513.1954041171,44.36627199507555,8.888915999999996
ITC43,Lecco,IT,Italy,45.8524098,9.3951697,169622.3168982555,44.36627199507555,8.888915999999996
ITC44,Sondrio,IT,Italy,46.171298,9.8693571,210554.9331710309,45.38189699546124,12.328673999999994
ITC46,Bergamo,IT,Italy,45.6941966,9.6707462,159699.01250179182,44.36627199507555,8.888915999999996
ITC47,Brescia,IT,Italy,45.5415526,10.2118019,164943.4245252992,44.248744497958945,9.181635526205417
ITC48,Pavia,IT,Italy,45.1853967,9.1552562,93268.7904700818,44.36627199507555,8.888915999999996
ITC49,Lodi,IT,Italy,45.30969899999999,9.5035435,115398.01964910266,44.36627199507555,8.888915999999996
ITC4A,Cremona,IT,Italy,45.1333135,10.0227044,118276.0198808226,44.20585158176862,9.28765106002355
ITC4B,Mantova,IT,Italy,45.1563425,10.7914387,122580.46418157298,45.253380848017294,12.343060418818286
ITC4C,Milano,IT,Italy,45.468503,9.1824027,124444.37662906539,44.36627199507555,8.888915999999996
ITC4D,Monza e della Brianza,IT,Italy,45.623599,9.2588015,142496.9009998588,44.36627199507555,8.888915999999996
ITF11,L’Aquila,IT,Italy,42.350697,13.399934,69095.82861389431,42.761107994417564,14.029907000000003
ITF12,Teramo,IT,Italy,42.6611431,13.6986639,29401.534004448775,42.76873596951766,14.02533490561054
ITF13,Pescara,IT,Italy,42.4617624,14.2160321,13345.02277118264,42.5484123901244,14.32808147838374
ITF14,Chieti,IT,Italy,42.3479367,14.1636412,25454.228523633003,42.51322952246851,14.377084334746423
ITF21,Isernia,IT,Italy,41.5971629,14.234533,68236.90084857117,41.18829299371959,13.628112999999997
ITF22,Campobasso,IT,Italy,41.5602674,14.6617334,59473.6968634866,41.95507799406603,15.142699999999996
ITF31,Caserta,IT,Italy,41.0720677,14.3312935,37570.848976573376,40.75313201547512,14.180039312264963
ITF32,Benevento,IT,Italy,41.1297194,14.7826577,56827.01180822483,40.64829647074837,14.550812115828517
ITF33,Napoli,IT,Italy,40.8517746,14.2681244,12826.866385249274,40.74286772683851,14.216613109613077
ITF34,Avellino,IT,Italy,40.9168443,14.7898404,34957.09149677732,40.62073603798782,14.647279884286872
ITF35,Salerno,IT,Italy,40.6813313,14.7743583,10429.752212997288,40.60467499344855,14.703308
ITF43,Taranto,IT,Italy,40.4622052,17.2689165,10163.805458641289,40.37292712610894,17.241423954810887
ITF44,Brindisi,IT,Italy,40.6327732,17.9418724,931.1158507567343,40.626189025970554,17.935115091540716
ITF45,Lecce,IT,Italy,40.3515255,18.174966,11146.830210154292,40.430138470854075,18.25587844646859
ITF46,Foggia,IT,Italy,41.4623132,15.5447402,30205.5730066158,41.541076993880395,15.889281999999996
ITF47,Bari,IT,Italy,41.1171432,16.8718715,2661.3551982762838,41.13832910237755,16.886628246856105
ITF48,Barletta-Andria-Trani,IT,Italy,41.2004543,16.2051484,21038.397695351985,41.36831432786124,16.32127914923644
ITF51,Potenza,IT,Italy,40.6377715,15.805502,73421.96618233346,40.04827899318474,15.413696000000005
ITF52,Matera,IT,Italy,40.66636010000001,16.6044454,33385.97081203172,40.44232199337214,16.869690000000002
ITF61,Cosenza,IT,Italy,39.3071324,16.2474125,28314.29250343645,39.18894101922647,15.959034157062682
ITF62,Crotone,IT,Italy,39.0807848,17.127163,2914.392627703924,39.0856492767603,17.094187370638238
ITF63,Catanzaro,IT,Italy,38.9097707,16.5877804,8350.941661796409,38.84368899259749,16.635070999999996
ITF64,Vibo Valentia,IT,Italy,38.6755587,16.0994697,19280.05695665466,38.785744513135754,15.92737769971583
ITF65,Reggio di Calabria,IT,Italy,38.1109851,15.6478516,3432.0938124218364,38.11043082935657,15.686721420827173
ITG11,Trapani,IT,Italy,38.0174282,12.5364464,168726.16851042828,37.09210199171305,11.028930999999996
ITG12,Palermo,IT,Italy,38.1156864,13.3614635,205314.80288768694,38.11038626469222,15.6867208308166
ITG13,Messina,IT,Italy,38.1937342,15.5542088,11781.921631261434,38.191894052506754,15.687804719720216
ITG14,Agrigento,IT,Italy,37.3088381,13.5857818,198393.91205532046,37.90887499212908,15.684082
ITG15,Caltanissetta,IT,Italy,37.4900647,14.0631576,151492.3860950643,37.90887499212908,15.684082
ITG16,Enna,IT,Italy,37.56915550000001,14.2748887,130829.49163600181,37.90887499212908,15.684082
ITG17,Catania,IT,Italy,37.5078836,15.0830032,69547.70728287612,37.90887499212908,15.684082
ITG18,Ragusa,IT,Italy,36.9239306,14.7198951,138924.706908093,37.90887499212908,15.684082
ITG19,Siracusa,IT,Italy,37.0754013,15.2867415,98656.8628284754,37.90887499212908,15.684082
ITG2D,Sassari,IT,Italy,40.7258034,8.5557334,284713.979459162,42.44827759314581,11.083685777545334
ITG2E,Nuoro,IT,Italy,40.3200954,9.3238703,272099.34255764185,42.13231159727405,11.50912827009654
ITG2F,Cagliari,IT,Italy,39.2237323,9.1217194,209386.13672546524,37.35009799184504,9.510071000000002
ITG2G,Oristano,IT,Italy,39.9061169,8.5883687,293313.62055957643,37.35009799184504,9.510071000000002
ITG2H,Sud Sardegna,IT,Italy,39.5560012,8.9245343,248650.00884140853,37.35009799184504,9.510071000000002
ITH10,Bolzano-Bozen,IT,Italy,46.4949259,11.3402543,145375.84076561913,45.3896662400416,12.346210355767965
ITH20,Trento,IT,Italy,46.06738559999999,11.1267378,120634.63821617923,45.38189699546124,12.328673999999994
ITH31,Verona,IT,Italy,45.4383659,10.9917136,104996.1445576623,45.38189699546124,12.328673999999994
ITH32,Vicenza,IT,Italy,45.5461815,11.5413779,64280.77761689663,45.38189699546124,12.328673999999994
ITH33,Belluno,IT,Italy,46.14163749999999,12.2148261,76089.87040094926,45.56004662072468,12.733761830677757
ITH34,Treviso,IT,Italy,45.6669338,12.2430608,30335.54611912068,45.43527379432268,12.449390317345648
ITH35,Venezia,IT,Italy,45.440379,12.3159547,6024.36079876503,45.3943736544173,12.356841398255064
ITH36,Padova,IT,Italy,45.4105029,11.8782071,35462.781962001034,45.38189699546124,12.328673999999994
ITH37,Rovigo,IT,Italy,45.0748447,11.7850885,45427.46724118151,45.108050975916605,12.359256458289407
ITH41,Pordenone,IT,Italy,45.9626508,12.6551504,41179.01054934836,45.647058511364655,12.93391672469079
ITH42,Udine,IT,Italy,46.0652851,13.2373414,37241.60873134261,45.73669399559013,13.141724000000002
ITH43,Gorizia,IT,Italy,45.9400855,13.6203249,31176.287104197607,45.66834672123266,13.520026961855631
ITH44,Trieste,IT,Italy,45.65083420000001,13.7674486,3008.3213507914365,45.62462832018646,13.75771075770319
ITH51,Piacenza,IT,Italy,45.0526415,9.6936883,97638.73093592055,44.285488056076005,9.090474211303926
ITH52,Parma,IT,Italy,44.8014788,10.3279911,96083.2871020118,43.977380646400505,9.956385551945221
ITH53,Reggio nell’Emilia,IT,Italy,44.70309659999999,10.6346153,93524.17869241768,43.92010499489846,10.200073000000001
ITH54,Modena,IT,Italy,44.647128,10.9252269,99332.29954900095,43.92010499489846,10.200073000000001
ITH55,Bologna,IT,Italy,44.494887,11.3426163,74104.04239419996,44.60052499516669,12.261475000000006
ITH56,Ferrara,IT,Italy,44.83925,11.6175537,56563.370621846094,44.6911474478918,12.300261948396203
ITH57,Ravenna,IT,Italy,44.418441,12.2034957,12736.948730837059,44.466841110905854,12.348199417144379
ITH58,Forlì-Cesena,IT,Italy,43.99476809999999,11.9804613,48885.4622844282,44.18070127691793,12.532310858082997
ITH59,Rimini,IT,Italy,44.0565776,12.5713325,3980.7913840485135,44.08556904057937,12.600506748985696
ITI11,Massa-Carrara,IT,Italy,44.2213998,10.0359661,27707.728957414532,43.9835392438219,9.930006643708062
ITI12,Lucca,IT,Italy,43.8430391,10.5156532,22845.262106585273,43.796716264339885,10.239623591170655
ITI13,Pistoia,IT,Italy,43.9298397,10.906814,55703.2695832023,43.81815133501874,10.232765557119881
ITI14,Firenze,IT,Italy,43.7699685,11.2576706,79482.15445047582,43.61251605526459,10.298339084991206
ITI15,Prato,IT,Italy,43.8777049,11.102228,69809.10497862885,43.73862902237311,10.258181581011538
ITI16,Livorno,IT,Italy,43.548476,10.3106087,635.603335822192,43.54976980058104,10.318251252405167
ITI17,Pisa,IT,Italy,43.72283849999999,10.4017581,10902.807882190462,43.70067590300171,10.270286008134642
ITI18,Arezzo,IT,Italy,43.4633082,11.8796215,90229.9440585441,44.09149199496701,12.589293999999997
ITI19,Siena,IT,Italy,43.3184741,11.3305812,74555.24063764683,43.171644059507074,10.437305888023351
ITI1A,Grosseto,IT,Italy,42.7635468,11.1123865,24726.74562144805,42.61673717130432,10.885922356298689
ITI21,Perugia,IT,Italy,43.1107168,12.3908279,97440.71868492357,43.819636697292054,13.099251757236157
ITI22,Terni,IT,Italy,42.5604522,12.6470618,99404.86105320023,41.91393833305784,11.815848524711246
ITI31,Pesaro e Urbino,IT,Italy,43.6130118,12.7135121,36953.737172173605,43.88151984204095,12.984003332007383
ITI32,Ancona,IT,Italy,43.6071395,13.5101741,913.9127011837104,43.600541576456514,13.503426202924793
ITI33,Macerata,IT,Italy,43.2984479,13.4556559,18490.65998529707,43.36667712008349,13.662928003036908
ITI34,Ascoli Piceno,IT,Italy,42.8540985,13.5688168,30351.280566986272,42.965554097964024,13.906923856375561
ITI35,Fermo,IT,Italy,43.1640745,13.7219535,4817.330766240694,43.18175297863403,13.77586354146716
ITI41,Viterbo,IT,Italy,42.4204278,12.1075465,57297.4340988295,42.046047512359166,11.630715847211906
ITI42,Rieti,IT,Italy,42.4045985,12.8567824,99125.00508943583,41.761551504336545,12.027807399694348
ITI43,Roma,IT,Italy,41.8967068,12.4822025,35907.95268426422,41.63841724313067,12.222523273649232
ITI44,Latina,IT,Italy,41.4674949,12.9028558,19570.055838408993,41.327357724424765,12.761106375023148
ITI45,Frosinone,IT,Italy,41.6394526,13.3426709,46773.0953486465,41.2194592363616,13.280326486537588
LI000,Liechtenstein,LI,Liechtenstein,47.14103919999999,9.520935,291631.27413285023,45.38189699546124,12.328673999999994
LT011,Vilniaus apskritis,LT,Lithuania,54.8086502,25.2182138,255844.5089024505,55.19049099793903,21.268493999999986
LT021,Alytaus apskritis,LT,Lithuania,54.2000214,24.1512634,216122.27661632578,55.19049099793903,21.268493999999986
LT022,Kauno apskritis,LT,Lithuania,54.9872863,23.9525736,172590.8345604325,55.19049099793903,21.268493999999986
LT023,Klaipėdos apskritis,LT,Lithuania,55.6686983,21.4241373,17146.552889069313,55.64672248332419,21.15399729146772
LT024,Marijampolės apskritis,LT,Lithuania,54.78199710000001,23.1341364,127735.33367845308,55.19049099793903,21.268493999999986
LT025,Panevėžio apskritis,LT,Lithuania,55.9748049,25.0794767,131539.1489855912,57.02569599818693,24.120727999999996
LT026,Šiaulių apskritis,LT,Lithuania,55.9985751,23.1380051,112918.04386495991,57.00628699818461,23.31848099999999
LT027,Tauragės apskritis,LT,Lithuania,55.3072586,22.357294,70212.93050003542,55.22169764363028,21.26072709749179
LT028,Telšių apskritis,LT,Lithuania,56.1026616,22.1113916,65364.41757249275,56.11918055045995,21.05980518549688
LT029,Utenos apskritis,LT,Lithuania,55.53189690000001,25.7904699,196527.0552841904,57.02569599818693,24.120727999999996
LU000,Luxembourg,LU,Luxembourg,49.815273,6.129582999999999,258297.71904499197,51.60869084503944,3.8079860382454798
LV003,Kurzeme,LV,Latvia,56.9969845,24.0229928,2968.197621099789,57.023561033771415,24.02130621743764
LV005,Latgale,LV,Latvia,56.553227,26.916053,178607.24287969607,57.02569599818693,24.120727999999996
LV006,Rīga,LV,Latvia,56.9676941,24.1056221,6433.839952300116,57.025301575784184,24.102089278447416
LV007,Pierīga,LV,Latvia,56.879635,24.603189,33604.040041018,57.02569599818693,24.120727999999996
LV008,Vidzeme,LV,Latvia,57.4087617,25.8768386,98653.38935034873,57.53165900379953,24.246227823329978
LV009,Zemgale,LV,Latvia,56.580626,23.5533943,48144.11476490873,57.011640436290534,23.52036478406282
MC000,Monaco,MC,,43.73841760000001,7.424615799999999,4999.358796174309,43.694613900441325,7.439246546674727
ME000,Crna Gora,ME,Montenegro,42.708678,19.37439,62599.960660934914,42.28149399420999,18.882080000000006
MK001,Vardarski,MK,North Macedonia,41.608635,21.745275,153490.67677782025,40.47607399338808,22.814087000000004
MK002,Istočen,MK,North Macedonia,41.608635,21.745275,153490.67677782025,40.47607399338808,22.814087000000004
MK003,Jugozapaden,MK,North Macedonia,41.608635,21.745275,153490.67677782025,40.47607399338808,22.814087000000004
MK004,Jugoistočen,MK,North Macedonia,41.608635,21.745275,153490.67677782025,40.47607399338808,22.814087000000004
MK005,Pelagoniski,MK,North Macedonia,41.608635,21.745275,153490.67677782025,40.47607399338808,22.814087000000004
MK006,Pološki,MK,North Macedonia,41.608635,21.745275,153490.67677782025,40.47607399338808,22.814087000000004
MK007,Severoistočen,MK,North Macedonia,41.608635,21.745275,153490.67677782025,40.47607399338808,22.814087000000004
MK008,Skopski,MK,North Macedonia,41.9981294,21.4254355,160231.59139278854,41.72009299396103,19.540099999999995
MT001,Malta,MT,Malta,35.937496,14.375416,247531.81539710105,37.90887499212908,15.684082
MT002,Gozo and Comino/Għawdex u Kemmuna,MT,Malta,36.012457,14.339222,241900.57631885336,37.90887499212908,15.684082
NL111,Oost-Groningen,NL,Netherlands,53.21784220000001,6.569171799999999,30730.034998573024,53.493471645254616,6.595768919012588
NL112,Delfzijl en omgeving,NL,Netherlands,53.33102719999999,6.924459799999999,16884.13023421887,53.48229999765703,6.905273000000005
NL113,Overig Groningen,NL,Netherlands,53.2193835,6.566501799999999,30569.103457174664,53.493570006000425,6.59294241236079
NL124,Noord-Friesland,NL,Netherlands,53.30439519999999,6.006783,18511.140471501876,53.45306982965266,5.881981966603374
NL125,Zuidwest-Friesland,NL,Netherlands,53.04886519999999,5.48219,28099.545778785654,53.27366483550745,5.290824720106152
NL126,Zuidoost-Friesland,NL,Netherlands,53.04886519999999,5.48219,28099.545778785654,53.27366483550745,5.290824720106152
NL131,Noord-Drenthe,NL,Netherlands,52.9476012,6.623058599999999,60546.601845488614,53.490644864606274,6.676201406382409
NL132,Zuidoost-Drenthe,NL,Netherlands,52.9476012,6.623058599999999,60546.601845488614,53.490644864606274,6.676201406382409
NL133,Zuidwest-Drenthe,NL,Netherlands,52.9476012,6.623058599999999,60546.601845488614,53.490644864606274,6.676201406382409
NL211,Noord-Overijssel,NL,Netherlands,52.5803827,5.9227255,88024.30220426022,53.285832341014284,5.330469938195459
NL212,Zuidwest-Overijssel,NL,Netherlands,52.4387814,6.5016411,117557.88626306252,53.49325229884973,6.602065238519625
NL213,Twente,NL,Netherlands,52.2663667,6.7875833,135561.3402198431,53.48229999765703,6.905273000000005
NL221,Veluwe,NL,Netherlands,52.2387683,5.8322737,104894.31019149897,52.57159168670548,4.389649891043384
NL224,Zuidwest-Gelderland,NL,Netherlands,52.19003439999999,5.950022499999999,114360.2635961887,52.55361435937787,4.378851967388674
NL225,Achterhoek,NL,Netherlands,52.132633,5.291265999999999,74609.07250161163,52.366509301362285,4.266996763820275
NL226,Arnhem/Nijmegen,NL,Netherlands,51.8432807,5.8609313,122687.12629961473,52.23143329518504,4.186838259999993
NL230,Flevoland,NL,Netherlands,52.4930507,5.4264142,68928.724424654,52.710430143580986,4.473344503015823
NL310,Utrecht,NL,Netherlands,52.09192549999999,5.1229572,65436.8306531652,52.29625837872171,4.225246022137087
NL321,Kop van Noord-Holland,NL,Netherlands,52.8163253,4.894034599999999,22524.616496010047,52.88678862004532,4.580436933567699
NL323,IJmond,NL,Netherlands,52.4965056,4.658564999999999,20002.47081740616,52.558588747413374,4.38183889512709
NL324,Agglomeratie Haarlem,NL,Netherlands,52.3873878,4.6462194,23430.403202279478,52.46001922556851,4.322778904535621
NL325,Zaanstreek,NL,Netherlands,52.4707899,4.8053726,30344.010699898095,52.56523848450241,4.385832874237259
NL327,Het Gooi en Vechtstreek,NL,Netherlands,52.132633,5.291265999999999,74609.07250161163,52.366509301362285,4.266996763820275
NL328,Alkmaar en omgeving,NL,Netherlands,52.6323813,4.753375399999999,20769.960799331348,52.69705522513361,4.465258418793831
NL329,Groot-Amsterdam,NL,Netherlands,52.3702141,4.8951761,39979.02622918844,52.49477225552864,4.343571384174913
NL332,Agglomeratie ’s-Gravenhage,NL,Netherlands,52.03764469999999,4.3221419,16080.467603936613,52.08699658699938,4.101667191009528
NL333,Delft en Westland,NL,Netherlands,51.9991757,4.217457,10797.638034645654,52.03222949015597,4.06951742002743
NL337,Agglomeratie Leiden en Bollenstreek,NL,Netherlands,52.16361879999999,4.4802444,21424.185624750524,52.22966563590232,4.185792536611935
NL33A,Zuidoost-Zuid-Holland,NL,Netherlands,52.0207975,4.4937836,27781.311487386178,52.106356478163526,4.113050996128571
NL33B,Oost-Zuid-Holland,NL,Netherlands,52.0207975,4.4937836,27781.311487386178,52.106356478163526,4.113050996128571
NL33C,Groot-Rijnmond,NL,Netherlands,52.132633,5.291265999999999,74609.07250161163,52.366509301362285,4.266996763820275
NL341,Zeeuwsch-Vlaanderen,NL,Netherlands,51.5375988,3.8050334,5900.487887912665,51.57798379529025,3.749912802288135
NL342,Overig Zeeland,NL,Netherlands,51.5375988,3.8050334,5900.487887912665,51.57798379529025,3.749912802288135
NL411,West-Noord-Brabant,NL,Netherlands,51.5336343,4.44472,43318.43027943483,51.66633001158019,3.8567392100427424
NL412,Midden-Noord-Brabant,NL,Netherlands,51.4826537,5.2321687,96500.35222844878,51.78305830638229,3.924241783058538
NL413,Noordoost-Noord-Brabant,NL,Netherlands,51.4826537,5.2321687,96500.35222844878,51.78305830638229,3.924241783058538
NL414,Zuidoost-Noord-Brabant,NL,Netherlands,51.4826537,5.2321687,96500.35222844878,51.78305830638229,3.924241783058538
NL421,Noord-Limburg,NL,Netherlands,51.4427238,6.0608726,151812.5805640784,51.92333696633711,4.0058295526037355
NL422,Midden-Limburg,NL,Netherlands,51.1987949,5.99187,157250.84968832476,51.69488646480094,3.8732207118438566
NL423,Zuid-Limburg,NL,Netherlands,51.4427238,6.0608726,151812.5805640784,51.92333696633711,4.0058295526037355
NO020,Innlandet,NO,Norway,61.3368595,9.9464628,208656.70188058153,59.469909998444315,10.356688999999998
NO060,Trøndelag,NO,Norway,63.4305149,10.3950528,72106.84951255104,63.854110381012184,9.296690983371533
NO071,Nordland,NO,Norway,67.097529,14.5736287,29273.848740808047,67.21708472870617,13.978037750599254
NO074,Troms og Finnmark,NO,Norway,70.0718208,23.2171664,16340.15861649962,70.20208699906644,23.023682000000004
NO081,Oslo,NO,Norway,59.9138688,10.7522454,54150.80772932527,59.469909998444315,10.356688999999998
NO082,Viken,NO,Norway,60.0389059,9.7253719,72556.3753674797,59.469909998444315,10.356688999999998
NO091,Vestfold og Telemark,NO,Norway,59.35421950000001,8.8817981,54019.050929578465,59.03234796982178,9.588756768218609
NO092,Agder,NO,Norway,58.50320840000001,7.757197499999999,31419.981147918355,58.23489372740176,7.925799079617238
NO0A1,Rogaland,NO,Norway,59.1489544,6.0143431,30095.428276431823,59.10500876497043,5.4969196316418945
NO0A2,Vestland,NO,Norway,60.8138379,6.1410712,53614.19763042331,60.786845811484575,5.160832989835442
NO0A3,Møre og Romsdal,NO,Norway,62.84068329999999,7.007143,12068.258429006984,62.92985939490578,6.871309114241948
PL213,Miasto Kraków,PL,Poland,50.06465009999999,19.9449799,486341.7426722531,54.42608599781945,19.660706000000005
PL214,Krakowski,PL,Poland,50.06465009999999,19.9449799,486341.7426722531,54.42608599781945,19.660706000000005
PL217,Tarnowski,PL,Poland,50.0121011,20.9858407,500101.7581072023,54.42608599781945,19.660706000000005
PL218,Nowosądecki,PL,Poland,49.6084971,20.6960387,541454.0267204858,54.42608599781945,19.660706000000005
PL219,Nowotarski,PL,Poland,49.4706746,19.9993836,552584.9205980757,54.42608599781945,19.660706000000005
PL21A,Oświęcimski,PL,Poland,50.0343982,19.2097782,489886.1384782236,54.43058827131767,19.376753614419485
PL224,Częstochowski,PL,Poland,50.7734391,19.4016035,407294.7120793431,54.42775652384056,19.56006036456454
PL225,Bielski,PL,Poland,52.762826,23.1381261,295453.4692299995,54.42608599781945,19.660706000000005
PL227,Rybnicki,PL,Poland,50.1021742,18.5462847,483136.40120875,54.43872099782148,18.696289000000004
PL228,Bytomski,PL,Poland,51.919438,19.145136,280072.2536215458,54.432496351701545,19.242005617294996
PL229,Gliwicki,PL,Poland,50.2921738,18.6673092,461860.42952228704,54.43799427997575,18.772724674013432
PL22A,Katowicki,PL,Poland,50.26489189999999,19.0237815,464487.91172493313,54.43352291927846,19.164834570120036
PL22B,Sosnowiecki,PL,Poland,50.27798740000001,19.1268002,462888.32783199404,54.43200731168565,19.277549536659787
PL22C,Tyski,PL,Poland,50.1249683,18.990102,480110.13281692914,54.43394749361324,19.131810394111238
PL411,Pilski,PL,Poland,53.1509671,16.7382266,147136.38344097347,54.33483483803634,15.749186980545518
PL414,Koniński,PL,Poland,52.2230334,18.2510729,248569.07970155973,54.43872099782148,18.696289000000004
PL415,Miasto Poznań,PL,Poland,52.40567859999999,16.9312766,227487.3730908232,54.23516114540098,15.412915197464205
PL416,Kaliski,PL,Poland,52.319344,22.4682282,300048.25314815994,54.42608599781945,19.660706000000005
PL417,Leszczyński,PL,Poland,51.8419861,16.5937545,270425.7377427759,53.824304858987865,14.274467642836958
PL418,Poznański,PL,Poland,52.40567859999999,16.9312766,227487.3730908232,54.23516114540098,15.412915197464205
PL424,Miasto Szczecin,PL,Poland,53.4285139,14.6067449,48569.73846343264,53.78092052738645,14.174470773022511
PL426,Koszaliński,PL,Poland,54.1943219,16.1714908,26313.109648522463,54.405820129516435,15.991618692958484
PL427,Szczecinecko-pyrzycki,PL,Poland,53.1032411,14.9137558,89927.5679070193,53.757079997706036,14.119689999999995
PL428,Szczeciński,PL,Poland,53.4285438,14.5528116,46461.122341301954,53.76550056826478,14.139025112717643
PL431,Gorzowski,PL,Poland,52.7325285,15.2369305,136297.29943871658,53.757079997706036,14.119689999999995
PL432,Zielonogórski,PL,Poland,51.9062861,15.5474593,227402.47134649634,53.757079997706036,14.119689999999995
PL514,Miasto Wrocław,PL,Poland,51.10929480000001,17.0386019,355305.5733866847,53.757079997706036,14.119689999999995
PL515,Jeleniogórski,PL,Poland,50.8073683,15.7249659,346106.3672101064,53.757079997706036,14.119689999999995
PL516,Legnicko-głogowski,PL,Poland,51.6469064,16.0784291,269646.3183662887,53.757079997706036,14.119689999999995
PL517,Wałbrzyski,PL,Poland,50.7437049,16.1796128,363692.5526183467,53.757079997706036,14.119689999999995
PL518,Wrocławski,PL,Poland,51.10929480000001,17.0386019,355305.5733866847,53.757079997706036,14.119689999999995
PL523,Nyski,PL,Poland,50.4653195,17.3424977,427669.2785287719,53.757079997706036,14.119689999999995
PL524,Opolski,PL,Poland,50.8003761,17.937989,408460.6480907774,54.43872099782148,18.696289000000004
PL613,Bydgosko-toruński,PL,Poland,53.0099889,18.5845197,159333.74922127556,54.43872099782148,18.696289000000004
PL616,Grudziądzki,PL,Poland,53.4837486,18.753565,106319.33206343955,54.43789290682804,18.783007603186526
PL617,Inowrocławski,PL,Poland,52.7993317,18.2562032,184899.12511540652,54.43872099782148,18.696289000000004
PL618,Świecki,PL,Poland,53.4958476,18.3687808,107182.54813437897,54.43872099782148,18.696289000000004
PL619,Włocławski,PL,Poland,52.6578834,19.0676872,197930.76925923707,54.43391572346407,19.134305515543417
PL621,Elbląski,PL,Poland,54.01609000000001,19.5895991,45801.775617400126,54.42692464141688,19.610797438396013
PL622,Olsztyński,PL,Poland,53.783365,20.4735725,89244.94142629989,54.42608599781945,19.660706000000005
PL623,Ełcki,PL,Poland,53.7888026,22.3323582,170936.17049359376,55.19049099793903,21.268493999999986
PL633,Trójmiejski,PL,Poland,54.3919577,18.5406663,11350.789942904947,54.43872099782148,18.696289000000004
PL634,Gdański,PL,Poland,54.35202520000001,18.6466384,10176.386635683188,54.43872099782148,18.696289000000004
PL636,Słupski,PL,Poland,54.4643059,17.0283557,23249.0377468536,54.653588156656056,16.87725459147589
PL637,Chojnicki,PL,Poland,53.7745398,17.7291612,97231.78703137838,54.43872099782148,18.696289000000004
PL638,Starogardzki,PL,Poland,53.8589184,18.3428483,68554.99590943856,54.43872099782148,18.696289000000004
PL711,Miasto Łódź,PL,Poland,51.7592924,19.4558778,297414.8770481792,54.427464246861305,19.57803199555264
PL712,Łódzki,PL,Poland,51.7592924,19.4558778,297414.8770481792,54.427464246861305,19.57803199555264
PL713,Piotrkowski,PL,Poland,51.40517209999999,19.7030244,336636.5081475076,54.42608599781945,19.660706000000005
PL714,Sieradzki,PL,Poland,51.5956014,18.7302994,316655.1679987907,54.437615395713465,18.810725098876016
PL715,Skierniewicki,PL,Poland,51.9547169,20.1583303,277440.258361109,54.42608599781945,19.660706000000005
PL721,Kielecki,PL,Poland,50.7941995,20.7373565,411259.18549105007,54.42608599781945,19.660706000000005
PL722,Sandomiersko-jędrzejowski,PL,Poland,50.65754,20.3008653,422185.39051345567,54.42608599781945,19.660706000000005
PL811,Bialski,PL,Poland,51.9008206,23.1749819,366556.4316911725,54.42608599781945,19.660706000000005
PL812,Chełmsko-zamojski,PL,Poland,51.919438,19.145136,280072.2536215458,54.432496351701545,19.242005617294996
PL814,Lubelski,PL,Poland,51.2493519,23.1011392,423060.55545796704,54.42608599781945,19.660706000000005
PL815,Puławski,PL,Poland,51.4174556,22.0546731,371948.9050613809,54.42608599781945,19.660706000000005
PL821,Krośnieński,PL,Poland,52.0001091,15.0030846,204432.26197612588,53.757079997706036,14.119689999999995
PL822,Przemyski,PL,Poland,49.7771435,22.7785702,560180.0113817644,54.42608599781945,19.660706000000005
PL823,Rzeszowski,PL,Poland,50.0411867,21.9991196,514006.019528974,54.42608599781945,19.660706000000005
PL824,Tarnobrzeski,PL,Poland,50.5729079,21.6790698,450718.09883370076,54.42608599781945,19.660706000000005
PL841,Białostocki,PL,Poland,53.0438238,23.3148968,274357.30047946266,55.19049099793903,21.268493999999986
PL842,Łomżyński,PL,Poland,53.1734141,22.047289,210261.18449788884,54.42608599781945,19.660706000000005
PL843,Suwalski,PL,Poland,54.15459440000001,22.8025066,152189.51299427386,55.19049099793903,21.268493999999986
PL911,Miasto Warszawa,PL,Poland,52.2296756,21.0122287,260876.74225582907,54.42608599781945,19.660706000000005
PL912,Warszawski wschodni,PL,Poland,52.2738835,20.6938283,249579.43814446416,54.42608599781945,19.660706000000005
PL913,Warszawski zachodni,PL,Poland,52.2738835,20.6938283,249579.43814446416,54.42608599781945,19.660706000000005
PL921,Radomski,PL,Poland,51.9483956,15.3654099,218138.7093691222,53.757079997706036,14.119689999999995
PL922,Ciechanowski,PL,Poland,52.8814838,20.6197948,183509.09016629445,54.42608599781945,19.660706000000005
PL923,Płocki,PL,Poland,52.5463446,19.7065364,209501.28583701266,54.42608599781945,19.660706000000005
PL924,Ostrołęcki,PL,Poland,53.0876544,21.5592554,194789.9010900167,54.42608599781945,19.660706000000005
PL925,Siedlecki,PL,Poland,52.1682859,22.2705817,305931.0704315244,54.42608599781945,19.660706000000005
PL926,Żyrardowski,PL,Poland,52.0129718,20.4227517,273740.27772593737,54.42608599781945,19.660706000000005
PT111,Alto Minho,PT,Portugal,41.8372138,-8.5721016,37699.20187826193,41.7983201675864,-9.023956014430409
PT112,Cávado,PT,Portugal,41.64423794024597,-8.373041720420288,51466.35250867136,41.45864252519096,-8.943234499550638
PT119,Ave,PT,Portugal,39.39987199999999,-8.224454,81932.62257004861,39.755126993043774,-9.048279000000031
PT11A,Área Metropolitana do Porto,PT,Portugal,41.2517226,-8.440357299999999,30183.96114887797,41.18432599371776,-8.79077099999993
PT11B,Alto Tâmega,PT,Portugal,39.39987199999999,-8.224454,81932.62257004861,39.755126993043774,-9.048279000000031
PT11C,Tâmega e Sousa,PT,Portugal,39.39987199999999,-8.224454,81932.62257004861,39.755126993043774,-9.048279000000031
PT11D,Douro,PT,Portugal,41.50561058101842,-5.492254831585304,225333.67787546903,43.48955462324965,-4.874204377215893
PT11E,Terras de Trás-os-Montes,PT,Portugal,41.8080133,-6.761025999999999,181922.58293424163,41.18432599371776,-8.79077099999993
PT150,Algarve,PT,Portugal,37.2555153,-8.3964938,30622.315603393392,36.978881991655015,-8.382812000000008
PT16B,Oeste,PT,Portugal,39.39987199999999,-8.224454,81932.62257004861,39.755126993043774,-9.048279000000031
PT16D,Região de Aveiro,PT,Portugal,40.7209023,-8.5721016,17284.011187348446,40.758063595135944,-8.769591315243245
PT16E,Região de Coimbra,PT,Portugal,40.110932,-8.0465185,78510.13989840251,40.28185164379719,-8.935017317425666
PT16F,Região de Leiria,PT,Portugal,39.7709532,-8.7921836,21602.949955547836,39.792915581929265,-9.041657160011008
PT16G,Viseu Dão Lafões,PT,Portugal,40.6565861,-7.9124712,73584.24203507556,40.76068099352161,-8.768677000000043
PT16H,Beira Baixa,PT,Portugal,39.39987199999999,-8.224454,81932.62257004861,39.755126993043774,-9.048279000000031
PT16I,Médio Tejo,PT,Portugal,39.5954974,-8.3964938,59152.3911040728,39.755126993043774,-9.048279000000031
PT16J,Beiras e Serra da Estrela,PT,Portugal,40.5337561,-7.252864499999999,131323.575278246,40.76068099352161,-8.768677000000043
PT170,Área Metropolitana de Lisboa,PT,Portugal,38.6850433,-8.968701099999999,40564.50203390885,38.515707998778815,-9.38614655072952
PT181,Alentejo Litoral,PT,Portugal,38.2003808,-7.800084999999998,89617.01445546893,38.08624623629367,-8.812196885401171
PT184,Baixo Alentejo,PT,Portugal,39.39987199999999,-8.224454,81932.62257004861,39.755126993043774,-9.048279000000031
PT185,Lezíria do Tejo,PT,Portugal,39.164378,-8.6600586,68906.82759671997,39.563023501522046,-9.25991652005927
PT186,Alto Alentejo,PT,Portugal,39.237805,-7.6114217,137699.13896756188,39.755126993043774,-9.048279000000031
PT187,Alentejo Central,PT,Portugal,38.2003808,-7.800084999999998,89617.01445546893,38.08624623629367,-8.812196885401171
RO111,Bihor,RO,Romania,47.01575159999999,22.172266,563987.0360069977,44.91387899528654,28.83789099999999
RO112,Bistriţa-Năsăud,RO,Romania,47.2486107,24.5322814,419675.9707572648,44.91387899528654,28.83789099999999
RO113,Cluj,RO,Romania,46.7712101,23.6236353,452001.1137752922,44.91387899528654,28.83789099999999
RO114,Maramureş,RO,Romania,47.6737598,23.7456285,495177.320382899,44.91387899528654,28.83789099999999
RO115,Satu Mare,RO,Romania,47.8016702,22.8575926,557924.099448463,44.91387899528654,28.83789099999999
RO116,Sălaj,RO,Romania,47.2090813,23.2121901,501617.4106359214,44.91387899528654,28.83789099999999
RO121,Alba,RO,Romania,46.1558924,23.5556121,432889.9016644875,44.91387899528654,28.83789099999999
RO122,Braşov,RO,Romania,45.6426802,25.5887252,266076.9030854589,44.91387899528654,28.83789099999999
RO123,Covasna,RO,Romania,45.84727669999999,26.1783452,231219.4340968329,44.91387899528654,28.83789099999999
RO124,Harghita,RO,Romania,46.4928507,25.6456696,302346.6380500235,44.91387899528654,28.83789099999999
RO125,Mureş,RO,Romania,46.5569904,24.6723215,369834.3737592923,44.91387899528654,28.83789099999999
RO126,Sibiu,RO,Romania,45.80347889999999,24.1449997,378990.8518714414,44.91387899528654,28.83789099999999
RO211,Bacău,RO,Romania,46.5692207,26.9108498,236053.38650617297,44.91387899528654,28.83789099999999
RO212,Botoşani,RO,Romania,47.7406537,26.6658127,333028.0537029992,46.52326512084039,30.708044838572402
RO213,Iaşi,RO,Romania,47.1584549,27.6014418,243520.9609973194,46.25864295822734,30.52891610114476
RO214,Neamţ,RO,Romania,46.9758685,26.3818764,296389.9538414078,44.91387899528654,28.83789099999999
RO215,Suceava,RO,Romania,47.6634521,26.2732302,356996.091721224,46.36850658485339,30.602996135355344
RO216,Vaslui,RO,Romania,46.6406915,27.7276468,203759.37158667925,45.57327997519292,29.892988514076013
RO221,Brăila,RO,Romania,45.2652463,27.9594714,78847.51750431974,44.91387899528654,28.83789099999999
RO222,Buzău,RO,Romania,45.1371109,26.8171122,160511.64588664912,44.89603148175645,28.83361957141151
RO223,Constanţa,RO,Romania,44.1759147,28.6519359,996.1502179750205,44.174324035823986,28.664252240651745
RO224,Galaţi,RO,Romania,45.4353208,28.0079945,86640.19776410756,44.91387899528654,28.83789099999999
RO225,Tulcea,RO,Romania,45.1716165,28.7914439,28897.837618764985,44.91387899528654,28.83789099999999
RO226,Vrancea,RO,Romania,45.81348759999999,27.0657531,169910.44835852511,44.91387899528654,28.83789099999999
RO311,Argeş,RO,Romania,45.0722527,24.8142726,315436.42520546546,44.637983912032524,28.772313783943453
RO312,Călăraşi,RO,Romania,44.2085144,27.3137439,106831.40632046718,44.046745139049214,28.634981501534654
RO313,Dâmboviţa,RO,Romania,44.9289893,25.425385,265805.31338569475,44.55378174448923,28.75249112838385
RO314,Giurgiu,RO,Romania,43.9037076,25.9699265,179266.56227503016,43.293273994642064,28.039123999999994
RO315,Ialomiţa,RO,Romania,44.603133,27.3789914,108145.2258457732,44.43809285802304,28.725400315013207
RO316,Prahova,RO,Romania,45.08919059999999,26.0829312,216820.02580657485,44.77361937814548,28.804432249094685
RO317,Teleorman,RO,Romania,44.0160491,25.2986628,233956.77764546798,43.279562120906014,28.03201172791045
RO321,Bucureşti,RO,Romania,44.4267674,26.1025384,198778.43200900915,43.293273994642064,28.039123999999994
RO322,Ilfov,RO,Romania,44.535548,26.2324886,196961.2112286862,44.249226478777175,28.68152961386406
RO411,Dolj,RO,Romania,44.1623022,23.6325054,365300.85748261743,43.04921262921896,27.913191577553825
RO412,Gorj,RO,Romania,44.94855949999999,23.2427079,423298.364539528,43.293273994642064,28.039123999999994
RO413,Mehedinţi,RO,Romania,44.5515053,22.9044157,413795.53624105034,42.28149399420999,18.882080000000006
RO414,Olt,RO,Romania,44.200797,24.5022981,300665.17871068476,43.26781775807692,28.025923525294527
RO415,Vâlcea,RO,Romania,45.30095439999999,24.1590342,369353.7893469107,44.80568547349597,28.81205950261618
RO421,Arad,RO,Romania,46.1865606,21.3122677,472002.1873590269,42.48679004345778,18.433371564679593
RO422,Caraş-Severin,RO,Romania,45.1139646,22.0740993,407996.00315943104,42.28149399420999,18.882080000000006
RO423,Hunedoara,RO,Romania,45.7678128,22.9072331,472571.9422067349,44.91387899528654,28.83789099999999
RO424,Timiş,RO,Romania,45.7557559,21.2322208,427822.89027619985,42.48010299429654,18.450072999999993
RS110,City of Belgrade,RS,Serbia,44.5850395,20.3964026,282516.1094954777,42.435754033707354,18.547124455169296
RS121,Zapadnobačka oblast ,RS,Serbia,45.7355385,19.1897364,333939.8986994935,43.210082994607376,16.930115
RS122,Južnobanatska oblast,RS,Serbia,44.016521,21.005859,259858.62853507375,42.28149399420999,18.882080000000006
RS123,Južnobačka oblast,RS,Serbia,44.016521,21.005859,259858.62853507375,42.28149399420999,18.882080000000006
RS124,Severnobanatska oblast,RS,Serbia,45.906839,19.9993417,387310.6786220876,43.210082994607376,16.930115
RS125,Severnobačka oblast,RS,Serbia,44.016521,21.005859,259858.62853507375,42.28149399420999,18.882080000000006
RS126,Srednjobanatska oblast,RS,Serbia,44.016521,21.005859,259858.62853507375,42.28149399420999,18.882080000000006
RS127,Sremska oblast,RS,Serbia,44.979777,19.6102033,288984.87047222635,42.69420700828418,17.91007792521506
RS211,Zlatiborska oblast,RS,Serbia,44.016521,21.005859,259858.62853507375,42.28149399420999,18.882080000000006
RS212,Kolubarska oblast,RS,Serbia,43.242652,21.5917123,238285.26737429353,41.877685994031566,19.371886999999997
RS213,Mačvanska oblast,RS,Serbia,44.7977773,20.4715526,305643.037511658,42.47278124037247,18.466119089281957
RS214,Moravička oblast,RS,Serbia,43.84147,20.2904987,208471.31914217805,42.28149399420999,18.882080000000006
RS215,Pomoravska oblast,RS,Serbia,44.016521,21.005859,259858.62853507375,42.28149399420999,18.882080000000006
RS216,Rasinska oblast,RS,Serbia,43.5601024,21.3450086,247340.89094788634,42.28149399420999,18.882080000000006
RS217,Raška oblast,RS,Serbia,43.2863993,20.6150936,181303.24283982153,42.28149399420999,18.882080000000006
RS218,Šumadijska oblast,RS,Serbia,44.016521,21.005859,259858.62853507375,42.28149399420999,18.882080000000006
RS221,Borska oblast,RS,Serbia,44.750415,20.4556424,300531.56957487337,42.46426523357777,18.484770767038338
RS222,Braničevska oblast,RS,Serbia,44.7946768,20.469398,305260.1366153335,42.47257248328308,18.466576457362976
RS223,Zaječarska oblast,RS,Serbia,43.3197745,21.8865547,262568.7532288133,41.87715481573869,19.37245586121454
RS224,Jablanička oblast,RS,Serbia,44.7488325,20.420022,298837.4593839831,42.474995827631865,18.461266661648487
RS225,Nišavska oblast,RS,Serbia,43.327169,21.9086097,264502.879687386,41.874248611244816,19.375568011013485
RS226,Pirotska oblast,RS,Serbia,44.0597897,22.1135151,330239.7791208762,42.28149399420999,18.882080000000006
RS227,Podunavska oblast,RS,Serbia,44.4729156,20.9901426,298394.937815376,42.28149399420999,18.882080000000006
RS228,Pčinjska oblast,RS,Serbia,44.7898488,20.4748218,305044.9877294263,42.469494810058364,18.473318486946006
RS229,Toplička oblast,RS,Serbia,44.2604657,19.8865489,230080.99111021092,42.48010299429654,18.450072999999993
SE110,Stockholms län,SE,Sweden,59.4069048,18.8230665,31175.395262321064,59.51377798171344,18.316641117058502
SE121,Uppsala län,SE,Sweden,60.2724233,18.1396124,13609.976767198517,60.35246651799875,18.326572841422173
SE122,Södermanlands län,SE,Sweden,59.03363489999999,16.7518899,33784.603972792174,58.75592382366317,16.98616244188831
SE123,Östergötlands län,SE,Sweden,58.3453635,15.5197843,71135.36357729945,58.27526776516287,16.724268597276403
SE124,Örebro län,SE,Sweden,59.535036,15.0065731,138640.09892293674,58.71990999837302,16.829284999999995
SE125,Västmanlands län,SE,Sweden,59.6713879,16.2158954,111141.23961228346,58.759072256073715,16.999930441241634
SE211,Jönköpings län,SE,Sweden,57.3708434,14.3439173,130333.53663280187,57.25422796968322,16.49396280814552
SE212,Kronobergs län,SE,Sweden,56.89064940000001,14.5084523,77395.61591338053,56.20092799808203,14.666687000000001
SE213,Kalmar län,SE,Sweden,57.0942447,16.5435605,5083.466305188021,57.09947700462862,16.460310306087457
SE214,Gotlands län,SE,Sweden,57.531291,18.6901396,126845.11204375834,57.68006997563672,16.588238538288053
SE221,Blekinge län,SE,Sweden,56.143109,15.3666703,388.0830871899689,56.146559832726524,15.367572605730498
SE224,Skåne län,SE,Sweden,55.99025719999999,13.5957692,52955.435602620346,55.90381565999888,12.762511307397398
SE231,Hallands län,SE,Sweden,56.7957699,12.893493,35343.095032344114,56.67806687409724,12.357284212554912
SE232,Västra Götalands län,SE,Sweden,58.15991589999999,12.1360549,41250.9334730992,58.05983634818878,11.46305764922207
SE311,Värmlands län,SE,Sweden,59.5807897,12.8472974,129840.52603904935,59.023706513260045,10.846805699017349
SE312,Dalarnas län,SE,Sweden,61.33649999999999,14.16401,158667.3185775238,61.34130899859745,17.119689999999995
SE313,Gävleborgs län,SE,Sweden,61.51322,15.53581,87015.52404399117,61.345236789563444,17.121623892717135
SE321,Västernorrlands län,SE,Sweden,62.98552900000001,18.1258604,8481.225832643278,62.93169358083701,18.242980784977288
SE322,Jämtlands län,SE,Sweden,63.1711922,14.95918,154719.55000086298,62.749511998693826,17.8479
SE331,Västerbottens län,SE,Sweden,65.3337311,16.5161695,199729.18976648676,66.15551419882428,12.677219665588924
SE332,Norrbottens län,SE,Sweden,66.8309216,20.3991966,147845.56728161586,65.72387699886106,22.183288999999995
SI031,Pomurska,SI,Slovenia,46.151241,14.995463,103210.75303561526,45.59112499553761,13.937683
SI032,Podravska,SI,Slovenia,46.151241,14.995463,103210.75303561526,45.59112499553761,13.937683
SI033,Koroška,SI,Slovenia,45.7457284,15.1952451,77826.32561431431,45.084620163156636,14.867489509964049
SI034,Savinjska,SI,Slovenia,46.151241,14.995463,103210.75303561526,45.59112499553761,13.937683
SI035,Zasavska,SI,Slovenia,46.151241,14.995463,103210.75303561526,45.59112499553761,13.937683
SI036,Posavska,SI,Slovenia,46.151241,14.995463,103210.75303561526,45.59112499553761,13.937683
SI037,Jugovzhodna Slovenija,SI,Slovenia,46.151241,14.995463,103210.75303561526,45.59112499553761,13.937683
SI038,Primorsko-notranjska,SI,Slovenia,46.151241,14.995463,103210.75303561526,45.59112499553761,13.937683
SI041,Osrednjeslovenska,SI,Slovenia,46.151241,14.995463,103210.75303561526,45.59112499553761,13.937683
SI042,Gorenjska,SI,Slovenia,46.315418,14.2913118,85033.26326015996,45.59112499553761,13.937683
SI043,Goriška,SI,Slovenia,46.151241,14.995463,103210.75303561526,45.59112499553761,13.937683
SI044,Obalno-kraška,SI,Slovenia,46.151241,14.995463,103210.75303561526,45.59112499553761,13.937683
SK010,Bratislavský kraj,SK,Slovakia,48.1485965,17.1077477,373518.99728458567,45.59112499553761,13.937683
SK021,Trnavský kraj,SK,Slovakia,48.3709108,17.5833218,415660.5185706334,45.59112499553761,13.937683
SK022,Trenčiansky kraj,SK,Slovakia,48.884936,18.0335209,480281.9821158777,45.59112499553761,13.937683
SK023,Nitriansky kraj,SK,Slovakia,48.3061414,18.076376,433934.9964422585,45.07611099534765,14.901672000000003
SK031,Žilinský kraj,SK,Slovakia,49.2031435,19.3645733,570769.6191816416,45.07611099534765,14.901672000000003
SK032,Banskobystrický kraj,SK,Slovakia,48.5312499,19.382874,514975.8142134866,45.07611099534765,14.901672000000003
SK041,Prešovský kraj,SK,Slovakia,49.0018324,21.2393119,614054.6648142575,54.42608599781945,19.660706000000005
SK042,Košický kraj,SK,Slovakia,48.6375737,21.0834225,616367.0261608734,45.07611099534765,14.901672000000003
SM000,San Marino,SM,,43.94236,12.457777,19604.377006349947,44.08522153991532,12.601164459414214
UKC11,Hartlepool and Stockton-on-Tees,UK,United Kingdom,54.691745,-1.212926,427285.34509225615,53.09191899758486,4.706116
UKC12,South Teesside,UK,United Kingdom,55.378051,-3.435973,587386.2682441709,53.09191899758486,4.706116
UKC13,Darlington,UK,United Kingdom,54.52361,-1.559458,441734.06401105697,53.09191899758486,4.706116
UKC14,Durham CC,UK,United Kingdom,54.77525,-1.584852,452927.6378528656,53.09191899758486,4.706116
UKC21,Northumberland,UK,United Kingdom,55.2082542,-2.0784138,501056.5468624428,53.09191899758486,4.706116
UKC22,Tyneside,UK,United Kingdom,55.0182399,-1.4858436,457927.7714067027,53.09191899758486,4.706116
UKC23,Sunderland,UK,United Kingdom,54.906869,-1.383801,446807.8991799749,53.09191899758486,4.706116
UKD11,West Cumbria,UK,United Kingdom,54.5772323,-2.7974835,502769.1631940492,50.94671599713196,1.6390989999999994
UKD12,East Cumbria,UK,United Kingdom,54.5772323,-2.7974835,502769.1631940492,50.94671599713196,1.6390989999999994
UKD33,Manchester,UK,United Kingdom,53.4807593,-2.2426305,387073.9308411293,50.94671599713196,1.6390989999999994
UKD34,Greater Manchester South West,UK,United Kingdom,53.4575955,-2.1578377,381293.0145443486,50.94671599713196,1.6390989999999994
UKD35,Greater Manchester South East,UK,United Kingdom,53.4575955,-2.1578377,381293.0145443486,50.94671599713196,1.6390989999999994
UKD36,Greater Manchester North West,UK,United Kingdom,53.4575955,-2.1578377,381293.0145443486,50.94671599713196,1.6390989999999994
UKD37,Greater Manchester North East,UK,United Kingdom,53.4575955,-2.1578377,381293.0145443486,50.94671599713196,1.6390989999999994
UKD41,Blackburn with Darwen,UK,United Kingdom,53.68985960000001,-2.4678625,414125.8616863757,50.94671599713196,1.6390989999999994
UKD42,Blackpool,UK,United Kingdom,53.81674229999999,-3.0370485,450733.481202936,50.94671599713196,1.6390989999999994
UKD44,Lancaster and Wyre,UK,United Kingdom,53.992,-2.928,459319.17676680774,50.94671599713196,1.6390989999999994
UKD45,Mid Lancashire,UK,United Kingdom,53.9690089,-2.6276908,443964.39280482265,50.94671599713196,1.6390989999999994
UKD46,East Lancashire,UK,United Kingdom,53.9690089,-2.6276908,443964.39280482265,50.94671599713196,1.6390989999999994
UKD47,Chorley and West Lancashire,UK,United Kingdom,53.653511,-2.632596,418928.6063264641,50.94671599713196,1.6390989999999994
UKD61,Warrington,UK,United Kingdom,53.39203999999999,-2.6023453,397626.226223743,50.94671599713196,1.6390989999999994
UKD62,Cheshire East,UK,United Kingdom,53.1530116,-2.2898096,364434.1826973003,50.94671599713196,1.6390989999999994
UKD63,Cheshire West and Chester,UK,United Kingdom,53.2302974,-2.7151117,388919.0181893227,49.77648899684208,-1.933410999999899
UKD71,East Merseyside,UK,United Kingdom,53.46295809999999,-2.9240946,416756.25072573277,49.77648899684208,-1.933410999999899
UKD72,Liverpool,UK,United Kingdom,53.4083714,-2.9915726,411572.25378344767,49.77648899684208,-1.933410999999899
UKD73,Sefton,UK,United Kingdom,53.5034449,-2.970359,421740.6080910085,49.77648899684208,-1.933410999999899
UKD74,Wirral,UK,United Kingdom,53.3727181,-3.073754,408734.32618431194,49.77648899684208,-1.933410999999899
UKE11,"Kingston upon Hull, City of",UK,United Kingdom,53.7674909,-0.3273025,340817.73941162694,52.8069259160748,4.531831986672702
UKE12,East Riding of Yorkshire,UK,United Kingdom,53.8215889,-0.7189977,358120.2862994719,50.94671599713196,1.6390989999999994
UKE13,North and North East Lincolnshire,UK,United Kingdom,53.5418558,-0.1263736,313160.13037930656,50.94671599713196,1.6390989999999994
UKE21,York,UK,United Kingdom,53.9614205,-1.0739108,382972.24350548896,50.94671599713196,1.6390989999999994
UKE22,North Yorkshire CC,UK,United Kingdom,54.25035949999999,-1.4708553,423847.98005588877,50.94671599713196,1.6390989999999994
UKE31,"Barnsley, Doncaster and Rotherham",UK,United Kingdom,53.4326035,-1.3635009,344552.28397647064,50.94671599713196,1.6390989999999994
UKE32,Sheffield,UK,United Kingdom,53.38112899999999,-1.470085,344475.09778870724,50.94671599713196,1.6390989999999994
UKE41,Bradford,UK,United Kingdom,53.7937996,-1.7563583,392263.7677949769,50.94671599713196,1.6390989999999994
UKE42,Leeds,UK,United Kingdom,53.8007554,-1.5490774,384775.025075017,50.94671599713196,1.6390989999999994
UKE44,Calderdale and Kirklees,UK,United Kingdom,53.7247845,-1.8658357,390686.377550448,50.94671599713196,1.6390989999999994
UKE45,Wakefield,UK,United Kingdom,53.6848162,-1.5038596,372573.15585879405,50.94671599713196,1.6390989999999994
UKF11,Derby,UK,United Kingdom,52.9225301,-1.4746186,306889.6787824779,50.94671599713196,1.6390989999999994
UKF12,East Derbyshire,UK,United Kingdom,53.2003512,-1.4338363,327548.1090598957,50.94671599713196,1.6390989999999994
UKF13,South and West Derbyshire,UK,United Kingdom,53.1407037,-1.5466361,327671.47965229384,50.94671599713196,1.6390989999999994
UKF14,Nottingham,UK,United Kingdom,52.9540223,-1.1549892,294632.4377744243,50.94671599713196,1.6390989999999994
UKF15,North Nottinghamshire,UK,United Kingdom,53.1285044,-0.9030999,299033.69555272575,50.94671599713196,1.6390989999999994
UKF16,South Nottinghamshire,UK,United Kingdom,52.9467693,-1.0757267,290509.6451256297,50.94671599713196,1.6390989999999994
UKF21,Leicester,UK,United Kingdom,52.6368778,-1.1397592,268554.8950774105,50.94671599713196,1.6390989999999994
UKF22,Leicestershire CC and Rutland,UK,United Kingdom,55.378051,-3.435973,587386.2682441709,53.09191899758486,4.706116
UKF24,West Northamptonshire,UK,United Kingdom,52.27137700000001,-1.0721487,238691.54644889088,50.94671599713196,1.6390989999999994
UKF25,North Northamptonshire,UK,United Kingdom,52.4022353,-0.6337493,225740.1416587236,50.94671599713196,1.6390989999999994
UKF30,Lincolnshire,UK,United Kingdom,53.2178821,-0.1999702,282597.9975409838,50.94671599713196,1.6390989999999994
UKG11,"Herefordshire, County of",UK,United Kingdom,52.0765164,-2.6544182,261427.7230185753,49.77648899684208,-1.933410999999899
UKG12,Worcestershire,UK,United Kingdom,52.2545225,-2.2668382,277257.976662365,49.77648899684208,-1.933410999999899
UKG13,Warwickshire,UK,United Kingdom,52.2671353,-1.4675216,260468.5637802865,50.94671599713196,1.6390989999999994
UKG21,Telford and Wrekin,UK,United Kingdom,52.7409916,-2.4868586,332784.357113243,49.77648899684208,-1.933410999999899
UKG22,Shropshire CC,UK,United Kingdom,52.7063657,-2.7417849,331538.37816295656,49.77648899684208,-1.933410999999899
UKG23,Stoke-on-Trent,UK,United Kingdom,53.0033369,-2.1827408,348199.0166716891,50.94671599713196,1.6390989999999994
UKG24,Staffordshire CC,UK,United Kingdom,52.7697957,-2.1045243,327977.6428061465,50.94671599713196,1.6390989999999994
UKG31,Birmingham,UK,United Kingdom,52.4822694,-1.8900078,297645.510752057,50.94671599713196,1.6390989999999994
UKG32,Solihull,UK,United Kingdom,52.411811,-1.77761,286951.38186629815,50.94671599713196,1.6390989999999994
UKG33,Coventry,UK,United Kingdom,52.4128163,-1.5089521,271969.26826446725,50.94671599713196,1.6390989999999994
UKG36,Dudley,UK,United Kingdom,52.5106724,-2.0865972,304994.55455286894,49.77648899684208,-1.933410999999899
UKG37,Sandwell,UK,United Kingdom,52.5361674,-2.010793,307686.23175481806,49.77648899684208,-1.933410999999899
UKG38,Walsall,UK,United Kingdom,52.586214,-1.982919,309361.7131729918,50.94671599713196,1.6390989999999994
UKG39,Wolverhampton,UK,United Kingdom,52.5868159,-2.1256587,313589.7581304551,49.77648899684208,-1.933410999999899
UKH11,Peterborough,UK,United Kingdom,52.57031689999999,-0.2407996999999999,222546.30216220065,50.94671599713196,1.6390989999999994
UKH12,Cambridgeshire CC,UK,United Kingdom,52.2761928,-0.0965375,190691.47407184506,50.94671599713196,1.6390989999999994
UKH14,Suffolk,UK,United Kingdom,52.27137700000001,1.0721487,151894.2092453909,50.99515280022471,1.845765115847051
UKH15,Norwich and East Norfolk,UK,United Kingdom,52.6292567,1.2978802,183676.25598388686,51.08356697765668,2.228198694189365
UKH16,North and West Norfolk,UK,United Kingdom,52.7516798,0.4022963000000001,218346.21650734634,50.94671599713196,1.6390989999999994
UKH17,Breckland and South Norfolk,UK,United Kingdom,52.4828179,1.2294887,170077.34039378443,51.05231600715428,2.0922422081293974
UKH21,Luton,UK,United Kingdom,51.8786707,-0.4200255,176815.2610853898,50.94671599713196,1.6390989999999994
UKH23,Hertfordshire,UK,United Kingdom,51.80978229999999,-0.2376744,162137.64671726007,50.94671599713196,1.6390989999999994
UKH24,Bedford,UK,United Kingdom,52.1386603,-0.4667687,197317.6222730569,50.94671599713196,1.6390989999999994
UKH25,Central Bedfordshire,UK,United Kingdom,51.97800609999999,-0.5275981,189287.2459069798,50.94671599713196,1.6390989999999994
UKH31,Southend-on-Sea,UK,United Kingdom,51.5459269,0.7077123,93165.16154830834,50.94671599713196,1.6390989999999994
UKH32,Thurrock,UK,United Kingdom,51.4934557,0.3529197,108498.30228761665,50.94671599713196,1.6390989999999994
UKH34,Essex Haven Gateway,UK,United Kingdom,51.88072409999999,0.9424156,114764.38483338474,50.94671599713196,1.6390989999999994
UKH35,West Essex,UK,United Kingdom,51.76683689999999,0.4757762,122082.36392532494,50.94671599713196,1.6390989999999994
UKH36,Heart of Essex,UK,United Kingdom,51.76683689999999,0.4757762,122082.36392532494,50.94671599713196,1.6390989999999994
UKH37,Essex Thames Gateway,UK,United Kingdom,51.5351832,0.4481378,105851.21272508123,50.94671599713196,1.6390989999999994
UKI31,Camden and City of London,UK,United Kingdom,51.5134068,-0.0890441,136126.4121977785,50.94671599713196,1.6390989999999994
UKI32,Westminster,UK,United Kingdom,51.4974948,-0.1356583,138237.968172344,50.94671599713196,1.6390989999999994
UKI33,Kensington & Chelsea and Hammersmith & Fulham,UK,United Kingdom,51.499399,-0.215796,143357.8467644398,50.94671599713196,1.6390989999999994
UKI34,Wandsworth,UK,United Kingdom,51.45837299999999,-0.1891356,139805.38784589004,50.94671599713196,1.6390989999999994
UKI41,Hackney and Newham,UK,United Kingdom,51.5436387,-0.0553621,135634.93857558613,50.94671599713196,1.6390989999999994
UKI42,Tower Hamlets,UK,United Kingdom,51.5251066,-0.0347399,133393.98094816113,50.94671599713196,1.6390989999999994
UKI43,Haringey and Islington,UK,United Kingdom,51.538621,-0.1028346,138267.87577501262,50.94671599713196,1.6390989999999994
UKI44,Lewisham and Southwark,UK,United Kingdom,51.502781,-0.087738,135512.50035615772,50.94671599713196,1.6390989999999994
UKI45,Lambeth,UK,United Kingdom,51.4935082,-0.1178424,136931.7773440509,50.94671599713196,1.6390989999999994
UKI51,Bexley and Greenwich,UK,United Kingdom,51.439933,0.154327,117361.99961857904,50.94671599713196,1.6390989999999994
UKI52,Barking & Dagenham and Havering,UK,United Kingdom,51.5377369,0.076127,127387.08217646365,50.94671599713196,1.6390989999999994
UKI53,Redbridge and Waltham Forest,UK,United Kingdom,51.5901724,-0.0173754,135943.60041807816,50.94671599713196,1.6390989999999994
UKI54,Enfield,UK,United Kingdom,51.6522994,-0.0807119,143321.3480247002,50.94671599713196,1.6390989999999994
UKI61,Bromley,UK,United Kingdom,51.4063204,0.0186804,124254.78622339891,50.94671599713196,1.6390989999999994
UKI62,Croydon,UK,United Kingdom,51.3769529,-0.0956895,130369.57779340194,50.94671599713196,1.6390989999999994
UKI63,"Merton, Kingston upon Thames and Sutton",UK,United Kingdom,51.41233,-0.300689,145097.12941176,50.94671599713196,1.6390989999999994
UKI71,Barnet,UK,United Kingdom,51.6569225,-0.1949252,150301.72498585677,50.94671599713196,1.6390989999999994
UKI72,Brent,UK,United Kingdom,51.5570677,-0.2859694,150510.03870987563,50.94671599713196,1.6390989999999994
UKI73,Ealing,UK,United Kingdom,51.5132537,-0.3043136,149584.3939551244,50.94671599713196,1.6390989999999994
UKI74,Harrow and Hillingdon,UK,United Kingdom,51.5805011,-0.3421192,155151.96340552843,50.94671599713196,1.6390989999999994
UKI75,Hounslow and Richmond upon Thames,UK,United Kingdom,51.4704304,-0.3632267,151476.4443214811,50.94671599713196,1.6390989999999994
UKJ11,Berkshire,UK,United Kingdom,51.4669939,-1.1853677,195569.76004222862,49.77648899684208,-1.933410999999899
UKJ12,Milton Keynes,UK,United Kingdom,52.0406224,-0.7594171,206255.88870724512,50.94671599713196,1.6390989999999994
UKJ13,Buckinghamshire CC,UK,United Kingdom,51.8072204,-0.8127664,195634.89804020527,50.94671599713196,1.6390989999999994
UKJ14,Oxfordshire,UK,United Kingdom,51.7612056,-1.2464674,220333.12068620083,50.94671599713196,1.6390989999999994
UKJ21,Brighton and Hove,UK,United Kingdom,50.83516050000001,-0.1261028,117523.96496377734,49.89806051173675,0.6318295223222271
UKJ22,East Sussex CC,UK,United Kingdom,50.9285982,0.2764899,92910.1215227186,50.74651894366478,1.5648197240278459
UKJ25,West Surrey,UK,United Kingdom,51.32941779999999,-0.662914,166488.9023077589,50.94671599713196,1.6390989999999994
UKJ26,East Surrey,UK,United Kingdom,51.2622513,-0.4672517,151502.43020540863,50.94671599713196,1.6390989999999994
UKJ27,West Sussex (South West),UK,United Kingdom,50.969873,-0.4159547,140303.39692340198,49.85292440068997,0.4949731281624936
UKJ28,West Sussex (North East),UK,United Kingdom,50.969873,-0.4159547,140303.39692340198,49.85292440068997,0.4949731281624936
UKJ31,Portsmouth,UK,United Kingdom,50.8197675,-1.0879769,130766.53846673714,49.77648899684208,-1.933410999999899
UKJ32,Southampton,UK,United Kingdom,50.9105468,-1.4049018,131760.08079393837,49.77648899684208,-1.933410999999899
UKJ34,Isle of Wight,UK,United Kingdom,50.69384789999999,-1.304734,111504.88132415312,49.77648899684208,-1.933410999999899
UKJ35,South Hampshire,UK,United Kingdom,51.0895203,-1.216844,154795.78268080665,49.77648899684208,-1.933410999999899
UKJ36,Central Hampshire,UK,United Kingdom,51.0895203,-1.216844,154795.78268080665,49.77648899684208,-1.933410999999899
UKJ37,North Hampshire,UK,United Kingdom,51.0895203,-1.216844,154795.78268080665,49.77648899684208,-1.933410999999899
UKJ41,Medway,UK,United Kingdom,51.450714,0.5413719,95031.83009912487,50.94671599713196,1.6390989999999994
UKJ43,Kent Thames Gateway,UK,United Kingdom,51.5351832,0.4481378,105851.21272508123,50.94671599713196,1.6390989999999994
UKJ44,East Kent,UK,United Kingdom,51.0928319,0.8392470999999999,58390.630341715805,50.94671599713196,1.6390989999999994
UKJ45,Mid Kent,UK,United Kingdom,51.25,0.7999999999999999,67759.72869784883,50.94671599713196,1.6390989999999994
UKJ46,West Kent,UK,United Kingdom,51.27329599999999,0.189347,107762.82047564191,50.94671599713196,1.6390989999999994
UKK11,"Bristol, City of",UK,United Kingdom,51.47552049999999,-2.6100556,195416.12406582246,49.77648899684208,-1.933410999999899
UKK12,"Bath and North East Somerset, North Somerset and South Gloucestershire",UK,United Kingdom,51.531456,-2.4547158,199121.44950413945,49.77648899684208,-1.933410999999899
UKK13,Gloucestershire,UK,United Kingdom,51.74677399999999,-2.2257856,220620.9212203017,49.77648899684208,-1.933410999999899
UKK14,Swindon,UK,United Kingdom,51.5581438,-1.7798258,198851.1490361906,49.77648899684208,-1.933410999999899
UKK15,Wiltshire CC,UK,United Kingdom,51.2462714,-1.9922127,163875.81268402236,49.77648899684208,-1.933410999999899
UKK23,Somerset,UK,United Kingdom,51.0634565,-2.7546704,154947.13627543926,49.77648899684208,-1.933410999999899
UKK24,"Bournemouth, Christchurch and Poole",UK,United Kingdom,50.7220163,-1.866724,105468.81228133295,49.77648899684208,-1.933410999999899
UKK25,Dorset,UK,United Kingdom,50.7390661,-2.3382346,111149.61951663622,49.77648899684208,-1.933410999999899
UKK30,Cornwall and Isles of Scilly,UK,United Kingdom,50.5036299,-4.6524982,197435.72098202552,48.79068711186671,-3.9695403882507647
UKK41,Plymouth,UK,United Kingdom,50.3754565,-4.1426565,171505.74037573504,49.77648899684208,-1.933410999999899
UKK42,Torbay,UK,United Kingdom,50.4619209,-3.525315,137078.92841670476,49.77648899684208,-1.933410999999899
UKK43,Devon CC,UK,United Kingdom,50.77721349999999,-3.999461,184719.26300425472,49.77648899684208,-1.933410999999899
UKL11,Isle of Anglesey,UK,United Kingdom,53.265325,-4.429140299999999,425861.03513007046,49.77648899684208,-1.933410999999899
UKL12,Gwynedd,UK,United Kingdom,52.8483607,-4.042521799999999,372797.8792719442,49.77648899684208,-1.933410999999899
UKL13,Conwy and Denbighshire,UK,United Kingdom,53.12830890000001,-3.3371083,386302.717946738,49.77648899684208,-1.933410999999899
UKL14,South West Wales,UK,United Kingdom,51.79077059999999,-3.9887224,267343.13793441973,49.77648899684208,-1.933410999999899
UKL15,Central Valleys,UK,United Kingdom,55.378051,-3.435973,587386.2682441709,53.09191899758486,4.706116
UKL16,Gwent Valleys,UK,United Kingdom,55.378051,-3.435973,587386.2682441709,53.09191899758486,4.706116
UKL17,Bridgend and Neath Port Talbot,UK,United Kingdom,51.5946799,-3.784097,241298.9322240416,49.77648899684208,-1.933410999999899
UKL18,Swansea,UK,United Kingdom,51.62144,-3.943645999999999,250011.90062800527,49.77648899684208,-1.933410999999899
UKL21,Monmouthshire and Newport,UK,United Kingdom,51.774928,-2.8759245,232565.8624990911,49.77648899684208,-1.933410999999899
UKL22,Cardiff and Vale of Glamorgan,UK,United Kingdom,51.483707,-3.1680962,209492.2517780933,49.77648899684208,-1.933410999999899
UKL23,Flintshire and Wrexham,UK,United Kingdom,53.197787,-3.1599793,390913.03009675315,49.77648899684208,-1.933410999999899
UKL24,Powys,UK,United Kingdom,52.1430868,-3.3736821,282665.89064407593,49.77648899684208,-1.933410999999899
UKM50,Aberdeen City and Aberdeenshire,UK,United Kingdom,57.16214290000001,-2.7194167,522676.8055299997,58.58807399835986,5.665894
UKM61,Caithness & Sutherland and Ross & Cromarty,UK,United Kingdom,57.948211,-4.436254,593023.7617541944,59.200339659884676,5.465171480853612
UKM62,"Inverness & Nairn and Moray, Badenoch & Strathspey",UK,United Kingdom,57.477773,-4.224721,597117.9983670813,58.72369682150549,5.622073592127042
UKM63,"Lochaber, Skye & Lochalsh, Arran & Cumbrae and Argyll & Bute",UK,United Kingdom,57.274,-5.896,699664.0582891539,58.807839440805765,5.594705527309001
UKM64,Na h-Eileanan Siar (Western Isles),UK,United Kingdom,57.75989180000001,-7.0194035,744843.2642951573,59.456932264062914,5.378784170988423
UKM65,Orkney Islands,UK,United Kingdom,59.03629,-2.8970293,472496.3428976381,59.663329998461634,5.3082889999999985
UKM66,Shetland Islands,UK,United Kingdom,60.3213009,-1.221926,354547.71743636,60.66500583861482,5.1773903443900355
UKM71,Angus and Dundee City,UK,United Kingdom,56.462018,-2.970721,569455.0304097,58.58807399835986,5.665894
UKM72,Clackmannanshire and Fife,UK,United Kingdom,56.2082078,-3.1495175,592954.5827991068,58.58807399835986,5.665894
UKM73,East Lothian and Midlothian,UK,United Kingdom,55.8292247,-3.1338428,591357.7481706818,53.09191899758486,4.706116
UKM75,"Edinburgh, City of",UK,United Kingdom,55.953252,-3.188267,600860.6907372127,53.09191899758486,4.706116
UKM76,Falkirk,UK,United Kingdom,56.00187750000001,-3.7839131,636157.6353514699,53.09191899758486,4.706116
UKM77,Perth & Kinross and Stirling,UK,United Kingdom,56.208394,-3.436359,608373.284023992,58.58807399835986,5.665894
UKM78,West Lothian,UK,United Kingdom,55.9070198,-3.5517167,618493.1435409179,53.09191899758486,4.706116
UKM81,"East Dunbartonshire, West Dunbartonshire and Helensburgh & Lomond",UK,United Kingdom,56.002318,-4.734014,689487.9354215908,53.09191899758486,4.706116
UKM82,Glasgow City,UK,United Kingdom,55.86167039999999,-4.2583345,656065.4862480408,53.09191899758486,4.706116
UKM83,"Inverclyde, East Renfrewshire and Renfrewshire",UK,United Kingdom,55.8298581,-4.5428385,670909.2985588242,53.09191899758486,4.706116
UKM84,North Lanarkshire,UK,United Kingdom,55.8289139,-3.9221958,635473.8321302223,53.09191899758486,4.706116
UKM91,Scottish Borders,UK,United Kingdom,55.54856969999999,-2.7861388,557781.2178197543,53.09191899758486,4.706116
UKM92,Dumfries & Galloway,UK,United Kingdom,55.070859,-3.60512,578055.8026067832,50.94671599713196,1.6390989999999994
UKM93,East Ayrshire and North Ayrshire mainland,UK,United Kingdom,55.7113902,-4.729983400000001,676734.3030574233,53.09191899758486,4.706116
UKM94,South Ayrshire,UK,United Kingdom,55.4588988,-4.6291994,653219.9772193513,50.94671599713196,1.6390989999999994
UKM95,South Lanarkshire,UK,United Kingdom,55.5243038,-3.7035077,609205.0713800886,53.09191899758486,4.706116
UKN06,Belfast,UK,United Kingdom,54.59728500000001,-5.93012,602846.7032603972,49.77648899684208,-1.933410999999899
UKN07,"Armagh City, Banbridge and Craigavon",UK,United Kingdom,54.3932592,-6.4563401,600648.4080235977,49.77648899684208,-1.933410999999899
UKN08,"Newry, Mourne and Down",UK,United Kingdom,54.1510979,-6.052497499999999,563795.47645271,49.77648899684208,-1.933410999999899
UKN09,Ards and North Down,UK,United Kingdom,54.5899645,-5.5984972,592236.6435927112,49.77648899684208,-1.933410999999899
UKN0A,Derry City and Strabane,UK,United Kingdom,54.7806842,-7.385386899999999,670124.3082414479,49.77648899684208,-1.933410999999899
UKN0B,Mid Ulster,UK,United Kingdom,54.6411301,-6.752254900000001,634239.3437590399,49.77648899684208,-1.933410999999899
UKN0C,Causeway Coast and Glens,UK,United Kingdom,55.043183,-6.6741288,669648.0133533619,49.77648899684208,-1.933410999999899
UKN0D,Antrim and Newtownabbey,UK,United Kingdom,54.6722244,-6.1703968,617674.9227505038,49.77648899684208,-1.933410999999899
UKN0E,Lisburn and Castlereagh,UK,United Kingdom,54.49815839999999,-6.1306791,599579.2785136924,49.77648899684208,-1.933410999999899
UKN0F,Mid and East Antrim,UK,United Kingdom,54.85836029999999,-5.9773795,629966.9199313116,49.77648899684208,-1.933410999999899
UKN0G,Fermanagh and Omagh,UK,United Kingdom,54.4513524,-7.7125018,653928.4650852494,49.77648899684208,-1.933410999999899
XK005,Ferizaj/Uroševac,XK,Kosovo,42.3701844,21.1483281,152286.5499430441,41.72009299396103,19.540099999999995
XK007,Gjakovë/Đakovica,XK,Kosovo,42.3844104,20.4285021,103971.89136413805,41.805828547786284,19.448725916710544
XK006,Gjilan/Gnjilane,XK,Kosovo,42.3887458,21.4275888,173918.83744515007,41.72009299396103,19.540099999999995
XK002,Mitrovicë/Mitrovica,XK,Kosovo,42.99479880000001,20.8076084,172101.2995102547,41.877685994031566,19.371886999999997
XK003,Pejë/Peć,XK,Kosovo,42.7209182,20.4738762,131094.25170997388,41.877685994031566,19.371886999999997
XK001,Prishtinë/Priština,XK,Kosovo,42.6694606,21.1414226,170035.1230258846,41.72988051072899,19.529685500500737
XK004,Prizren/Prizren,XK,Kosovo,42.2171438,20.7436495,114640.38097364292,41.72009299396103,19.540099999999995
